"station_id","station_name","ciOrgname","OrgName","Code","Address","Longitude","Latitude","PQ_id","PQ_name","FullName","Description","ciCategory","CategoryInfos_Name","SIUnit"  
"8486cc2b-3564-44ba-857e-bfb41d174cb4","佳冬鄉_中油加油站","水利署","第七河川分署","3132017FL4113","屏東縣佳冬鄉","120.54461","22.417253","793129ff-c127-4696-b65e-2ffadc843497","淹水深度","(佳冬鄉_中油加油站_淹水深度)","路面淹水深度量測","淹水感測器","淹水深度","cm"
"2298c139-59d3-45b8-9be2-a2c3059790c4","110P002元長潭東村埔仔尾","水利署","第五河川分署","3132015FL1080122","元長鄉潭東村","120.2924","23.6425","7dc823e0-3760-4cc7-b2de-a04ef25a651b","淹水深度","110P002埔仔尾","淹水量測","淹水感測器","淹水深度","cm"
"38505796-1525-4c8b-9d5c-27fea47db00f","路面淹水感知器","水利署","第七河川分署","3132017FL9999","","120","23","8f7e793e-b668-4bc5-b0f3-927c60e38f93","淹水深度","水位(O)","淹水深度","淹水感測器","淹水深度","cm"
"38505796-1525-4c8b-9d5c-27fea47db00f","路面淹水感知器","水利署","第七河川分署","3132017FL9999","","120","23","20ad1b56-3d4f-4118-9625-5c1a3e60b4c6","淹水深度","observation","Raw Data","淹水感測器","淹水深度","cm"
"0b712db3-9ff1-4be2-9e50-622c513f1670","二林溪庄挖仔排水淹水監控站","水利署","第四河川分署","3132014FLRD00031","彰化縣二林鎮挖仔路泰興宮","120.4394","23.9511","ede8a90b-d39e-4f85-b610-f686971bd941","淹水深度","二林溪庄挖仔排水淹水監控站","地面淹水感測","淹水感測器","淹水深度","cm"
"3f3d1ea9-f725-4a5e-b3e2-36483a726eb6","二水芭樂坑淹水監控站","水利署","第四河川分署","3132014FLRD00048","二水芭樂坑","120.6179","23.8149","08c23297-15b4-4f10-ae96-ce6a67ff6f37","淹水深度","二水芭樂坑淹水監控站","地面淹水感測","淹水感測器","淹水深度","cm"
"9e0d32c1-c8ad-4080-9958-a19303785a4b","108P030四湖崙南村太安宮","水利署","第五河川分署","3132015FL1080007","崙南村太安宮","120.161575","23.641691","1d045525-d82f-4778-855e-3e3a22c9216c","淹水深度","三崙國小淹水高度","淹水高度量測(高度5cm以下每1HR回傳、5cm每10MIN回傳)","淹水感測器","淹水深度","cm"
"4e88e5c7-d2f6-4b7a-baa8-d9dca49197f0","108Q023東石下揖村警察局朴子分局下揖派出所","水利署","第五河川分署","3132015FL1080070","下揖村警察局朴子分局下揖派出所","120.196434","23.48704","9d0d0280-9d33-46ba-9b5e-f7f14eec8546","淹水深度","下揖村淹水高度","淹水高度量測(高度5cm以下每1HR回傳、5cm每10MIN回傳)","淹水感測器","淹水深度","cm"
"be815803-90fb-48b5-9558-4355c5b3f63d","107P006口湖蚵寮村箔子寮","水利署","第五河川分署","3132015FL1070006","口湖鄉公所-路燈072116","120.17178","23.578457","612fac16-b0d0-4ab9-9b5e-dcd40986fd9b","傳輸訊號強度","口湖中華街_4G訊號強度","訊號強度量測","淹水感測器","其他","dBm"
"37a624af-50a9-42e7-b7ef-91cbeaee7dfd","108P045口湖湖東村富安宮","水利署","第五河川分署","3132015FL1080104","湖東村富安宮","120.183975","23.585478","a783a6b5-d871-41f2-84c3-dc25d2be1ffc","淹水深度","口湖富安宮淹水高度","淹水高度量測(高度5cm以下每1HR回傳、5cm每10MIN回傳)","淹水感測器","淹水深度","cm"
"be815803-90fb-48b5-9558-4355c5b3f63d","107P006口湖蚵寮村箔子寮","水利署","第五河川分署","3132015FL1070006","口湖鄉公所-路燈072116","120.17178","23.578457","cc17f351-dc8e-4b84-bbf2-c0c88c36adce","傳輸訊號強度","口湖中華街_NB訊號強度","訊號強度量測","淹水感測器","其他","dBm"
"be815803-90fb-48b5-9558-4355c5b3f63d","107P006口湖蚵寮村箔子寮","水利署","第五河川分署","3132015FL1070006","口湖鄉公所-路燈072116","120.17178","23.578457","d2c61e21-ee4e-446f-91d1-1ef41619464f","直流電壓","口湖中華街_電池電壓","電池電壓量測","淹水感測器","電力","V"
"d9524d7d-d4ef-4140-a782-80bdc2a12a47","108Q045水上下寮村縱貫鐵路旁","水利署","第五河川分署","3132015FL1080074","下寮村縱貫鐵路旁","120.4238","23.46001","517bb8d1-b10c-4c48-b9d4-29c53bd644b5","淹水深度","下寮村淹水高度","淹水高度量測(高度5cm以下每1HR回傳、5cm每10MIN回傳)","淹水感測器","淹水深度","cm"
"a1534cb9-8770-46eb-812d-1dfeb9eaf558","大村分駐所淹水監控站","水利署","第四河川分署","3132014FLRD00022","大村分駐所","120.5451","23.9951","bc4e0870-8678-4eec-9c23-e069c5e84790","淹水深度","大村分駐所淹水監控站","地面淹水感測","淹水感測器","淹水深度","cm"
"ea910e8d-6759-44e4-bbda-319903935dc8","大城鄉彰163-1鄉道淹水監控站","水利署","第四河川分署","3132014FLRD00050","彰化縣大城鄉彰163-1鄉道","120.2881","23.8661","33449a97-e25f-41e5-b987-28c4be7ab972","淹水深度","大城鄉彰163-1鄉道淹水監控站","地面淹水感測","淹水感測器","淹水深度","cm"
"5f20926b-3626-42a1-9264-b47683b136fb","大城西港排水淹水監控站","水利署","第四河川分署","3132014FLRD00040","大城西港","120.28886","23.8631","4d3e5be8-657c-41ca-ad97-6b1ee139fa95","淹水深度","大城西港排水淹水監控站","地面淹水感測","淹水感測器","淹水深度","cm"
"c9b00cbf-f79f-414e-a453-f37cc714bda0","大城公館排水淹水監控站","水利署","第四河川分署","3132014FLRD00041","大城鄉永安宮","120.2902","23.8561","4105c7cb-97a8-4e78-a9f9-7f0aebbd1ac6","淹水深度","大城公館排水淹水監控站","地面淹水感測","淹水感測器","淹水深度","cm"
"3d599172-c574-4249-9c36-7a23a140bae9","108P027大埤吉田村仁和國小","水利署","第五河川分署","3132015FL1080028","吉田村仁和國小","120.42588","23.662813","3f2aff37-6888-4d52-8997-0448714b1f81","淹水深度","大埤鄉仁和國小淹水高度","淹水高度量測(高度5cm以下每1HR回傳、5cm每10MIN回傳)","淹水感測器","淹水深度","cm"
"70baa038-f917-4bd2-96f8-d06d3d8cb426","108P020土庫大荖里舊虎尾溪","水利署","第五河川分署","3132015FL1080130","大荖里舊虎尾溪","120.3712","23.679407","f03329c0-8291-46f2-a40e-708232244249","淹水深度","大荖里淹水高度","淹水高度量測(高度5cm以下每1HR回傳、5cm每10MIN回傳)","淹水感測器","淹水深度","cm"
"87e43b01-b2ae-415c-8a22-c374cd53d8cc","大城過湖排水淹水感測","水利署","第四河川分署","3132014FLRD00002","彰化縣大城鄉三豐村過湖排水","120.30129","23.892946","dfde1f63-0776-4e49-9f84-0a74fa616b83","淹水深度","大城過湖排水淹水","地面水淹水感測","淹水感測器","淹水深度","cm"
"08d81dcd-5278-4b99-9b35-b5ba809b8983","108P026大埤豐田村太豐汽車保養廠","水利署","第五河川分署","3132015FL1080118","豐田村太豐汽車保養廠","120.46856","23.664005","760f9718-d501-48e9-929d-6ea484ff0430","淹水深度","大豐汽車保養廠淹水高度","淹水高度量測(高度5cm以下每1HR回傳、5cm每10MIN回傳)","淹水感測器","淹水深度","cm"
"10e98ecd-b835-4774-96b9-bcc052086f46","花蓮市國威里-中山路320號 ","水利署","第九河川分署","3132019FL007","中山路320號","121.6058","23.98174","d780e099-3ba1-4550-9bdd-93952a234ae3","淹水深度","花蓮市國威里-中山路320號 ","淹水高度量測(高度0時每3HR回傳>10cm每5MIN回傳<10cm每10MIN回傳)","淹水感測器","淹水深度","cm"
"424a92a3-a518-485f-8a46-5a10378c3f9c","鳳林鎮鳳仁里-中正路二段371號 ","水利署","第九河川分署","3132019FL009","中正路二段371號","121.4523","23.75535","08fd7a34-d505-45af-b611-159ff76b72b3","淹水深度","鳳林鎮鳳仁里-中正路二段371號 ","淹水高度量測(高度0時每3HR回傳>10cm每5MIN回傳<10cm每10MIN回傳)","淹水感測器","淹水深度","cm"
"855750f1-6569-41c1-9498-17d83bf2fc32","玉里鎮中城里-忠孝路7號","水利署","第九河川分署","3132019FL014","中城里市區民宅70號","121.3262","23.32285","1d7d5fb0-8a5d-4997-8141-a0f0a489e5b5","淹水深度","玉里鎮中城里-忠孝路7號","淹水高度量測(高度0時每3HR回傳>10cm每5MIN回傳<10cm每10MIN回傳)","淹水感測器","淹水深度","cm"
"415a9d74-99c8-4387-b79c-1748cf08d8d0","108Q006民雄豐收村豐收派出所","水利署","第五河川分署","3132015FL1080053","豐收村豐收派出所","120.44957","23.562468","a0608108-5649-46e0-8085-9ab1a72d95cd","淹水深度","五穀王廟淹水高度","淹水高度量測(高度5cm以下每1HR回傳、5cm每10MIN回傳)","淹水感測器","淹水深度","cm"
"871f66c5-cf88-4d07-ba6a-bd25c36c8063","107P005元長瓦磘村瓦磘厝","水利署","第五河川分署","3132015FL1070005","元長鄉公所-路燈141903","120.35811","23.640463","39749499-9c7e-42af-9a00-f12f28580e36","淹水深度","元長瓦磘村瓦磘厝_淹水深度","路面淹水深度量測","淹水感測器","淹水深度","cm"
"871f66c5-cf88-4d07-ba6a-bd25c36c8063","107P005元長瓦磘村瓦磘厝","水利署","第五河川分署","3132015FL1070005","元長鄉公所-路燈141903","120.35811","23.640463","865bd7e7-dcec-455a-98bf-0d5caedc3af8","傳輸訊號強度","元長瓦磘村_NB訊號強度","訊號強度量測","淹水感測器","其他","dBm"
"d8372242-1284-48a5-b589-84dbd329bd85","108P039元長內寮村元帥廟","水利署","第五河川分署","3132015FL1080062","內寮村元帥廟","120.3431","23.617727","edcf0781-cf8e-4aa8-a9f4-13043bc393f5","淹水深度","元帥廟淹水高度","淹水高度量測(高度5cm以下每1HR回傳、5cm每10MIN回傳)","淹水感測器","淹水深度","cm"
"871f66c5-cf88-4d07-ba6a-bd25c36c8063","107P005元長瓦磘村瓦磘厝","水利署","第五河川分署","3132015FL1070005","元長鄉公所-路燈141903","120.35811","23.640463","5c7817b2-c98f-4517-9579-793441f03dd5","傳輸訊號強度","元長瓦磘村_4G訊號強度","訊號強度量測","淹水感測器","其他","dBm"
"21599260-e184-4002-b4be-ab580278e7f4","108P031元長潭東村辦公處","水利署","第五河川分署","3132015FL1080147","潭東村禾耕豐農產加工","120.29492","23.646091","f474ec96-d53c-4ade-89d4-56ba0092c7e2","淹水深度","元長鄉潭東村辦公處淹水高度","淹水高度量測(高度5cm以下每1HR回傳、5cm每10MIN回傳)","淹水感測器","淹水深度","cm"
"871f66c5-cf88-4d07-ba6a-bd25c36c8063","107P005元長瓦磘村瓦磘厝","水利署","第五河川分署","3132015FL1070005","元長鄉公所-路燈141903","120.35811","23.640463","aee0a21a-bc7e-42e2-b389-6dde9c1366f6","直流電壓","元長瓦磘村_電池電壓","電池電壓量測","淹水感測器","電力","V"
"38505796-1525-4c8b-9d5c-27fea47db00f","路面淹水感知器","水利署","第七河川分署","3132017FL9999","","120","23","e515a296-3c96-4c40-8657-5267df26584c","淹水深度","水位(O)","淹水深度","淹水感測器","淹水深度","cm"
"455bfc3b-8479-4fc4-937b-b6a3dd554238","108P061口湖水井村","水利署","第五河川分署","3132015FL1080077","水井村","120.18524","23.532223","71524110-5dec-4462-8b99-0bb19e024a70","淹水深度","水井村淹水高度","淹水高度量測(高度5cm以下每1HR回傳、5cm每10MIN回傳)","淹水感測器","淹水深度","cm"
"38505796-1525-4c8b-9d5c-27fea47db00f","路面淹水感知器","水利署","第七河川分署","3132017FL9999","","120","23","a7a26f66-ed8f-493d-9f3c-ea0a367d5ce6","淹水深度","水位(O)","淹水深度","淹水感測器","淹水深度","cm"
"38505796-1525-4c8b-9d5c-27fea47db00f","路面淹水感知器","水利署","第七河川分署","3132017FL9999","","120","23","65c4cc5a-48b2-4043-9807-481163a31b88","淹水深度","水位(O)","淹水深度","淹水感測器","淹水深度","cm"
"38505796-1525-4c8b-9d5c-27fea47db00f","路面淹水感知器","水利署","第七河川分署","3132017FL9999","","120","23","d4989def-b2fa-428d-9a85-d8957af103d8","淹水深度","水位(O)","淹水深度","淹水感測器","淹水深度","cm"
"38505796-1525-4c8b-9d5c-27fea47db00f","路面淹水感知器","水利署","第七河川分署","3132017FL9999","","120","23","baa3486e-310c-494f-a6d0-7816699c2e7e","淹水深度","水位(O)","淹水深度","淹水感測器","淹水深度","cm"
"38505796-1525-4c8b-9d5c-27fea47db00f","路面淹水感知器","水利署","第七河川分署","3132017FL9999","","120","23","9f5cdca4-84b9-46ca-8cf0-568c8d63f6b1","淹水深度","水位(O)","淹水深度","淹水感測器","淹水深度","cm"
"38505796-1525-4c8b-9d5c-27fea47db00f","路面淹水感知器","水利署","第七河川分署","3132017FL9999","","120","23","a97bdb0b-5c03-4f4b-b173-d2e7b6c9e398","淹水深度","水位(O)","淹水深度","淹水感測器","淹水深度","cm"
"38505796-1525-4c8b-9d5c-27fea47db00f","路面淹水感知器","水利署","第七河川分署","3132017FL9999","","120","23","3ab879f0-96c3-43f7-bc81-78f8d7743cf0","淹水深度","水位(O)","淹水深度","淹水感測器","淹水深度","cm"
"b2c643f4-3f68-47d8-83b0-d3f3159e27df","107P007水林松中村蔦松","水利署","第五河川分署","3132015FL1070007","水林鄉公所-路燈092076","120.22889","23.517956","72ca228d-6e10-4864-99f9-d062f27d37ad","淹水深度","水林松中村蔦松 _淹水深度","路面淹水深度量測","淹水感測器","淹水深度","cm"
"38505796-1525-4c8b-9d5c-27fea47db00f","路面淹水感知器","水利署","第七河川分署","3132017FL9999","","120","23","da0fabad-942a-4e50-ac23-7e30cc353538","淹水深度","水位(O)","淹水深度","淹水感測器","淹水深度","cm"
"0da80c7a-5b77-41fc-9157-9d9db22b4287","108P014元長後湖村包千宮","水利署","第五河川分署","3132015FL1080003","後湖村包千宮","120.31459","23.689644","ccdb807d-1fb5-44f5-a7d0-b00144556412","淹水深度","包千宮、舊虎尾溪左岸淹水高度","淹水高度量測(高度5cm以下每1HR回傳、5cm每10MIN回傳)","淹水感測器","淹水深度","cm"
"4e5e929b-2753-489b-9e84-7aa188f78abb","秀林鄉景美村-加灣路175號","水利署","第九河川分署","3132019FL006","花蓮縣光復鄉大進村大進街1號","121.42667","23.651575","f2173ef7-f05b-4ed0-a4d2-b54c7610cc91","淹水深度","秀林鄉景美村-加灣路175號","淹水高度量測(高度0時每3HR回傳>10cm每5MIN回傳<10cm每10MIN回傳)","淹水感測器","淹水深度","cm"
"799cd3df-8df3-42da-b247-7e868c1e9f06","108P052口湖台子村","水利署","第五河川分署","3132015FL1080067","台子村","120.14308","23.560223","979bb3a8-b879-44d8-84f6-4dd9010385b6","淹水深度","台子天台宮淹水高度","淹水高度量測(高度5cm以下每1HR回傳、5cm每10MIN回傳)","淹水感測器","淹水深度","cm"
"bd47ee6b-0585-4d21-858a-32be929f8933","員林彰基淹水感測","水利署","第四河川分署","3132014FLRD00001","彰化縣員林巿靜修路員林基督教醫院旁","120.56723","23.962317","79a033df-e743-43f9-80a6-0957bb97bdf3","淹水深度","四河局員林彰基淹水感測深度","淹水深度監測","淹水感測器","淹水深度","cm"
"1a56fb80-c5c6-445a-8eaa-84dea8465bce","111Q001布袋過溝建安橋","水利署","第五河川分署","3132015FL111Q001","布袋過溝建安橋","120.17822","23.41803","16886f60-1677-4bfa-8d3b-75b194173380","淹水深度","布袋過溝建安橋淹水深度","淹水高度量測(高度5cm以下每1HR回傳、5cm每10MIN回傳)","淹水感測器","淹水深度","cm"
"3463cb55-cbea-4c75-9cd8-596ffb33cca9","107Q011布袋考試里鹿寮","水利署","第五河川分署","3132015FL1070018","台電-江山66分27南分9分4M-9575,CD-53","120.1888","23.389559","b7ce8d8b-23d3-47dd-908f-40ded07a37dd","淹水深度","布袋考試里鹿寮_淹水深度","淹水深度","淹水感測器","淹水深度","cm"
"de60c00e-04ff-48c0-8563-59db78e83cb2","108Q053布袋興中里布袋漁港","水利署","第五河川分署","3132015FL1080105","興中里布袋漁港","120.15851","23.383383","e12696ed-275a-4729-bd54-d9736f1d505d","淹水深度","布袋漁港淹水高度","淹水高度量測(高度5cm以下每1HR回傳、5cm每10MIN回傳)","淹水感測器","淹水深度","cm"
"a3550f5f-34eb-4364-bd5d-c51a115ea6b7","107Q003民雄交流道","水利署","第五河川分署","3132015FL1070010","台電-民雄21西30北分12分4K-2411,FE-21","120.41805","23.553417","336b9890-a67e-422c-b9eb-cda5a199c511","淹水深度","民雄交流道_淹水深度","路面淹水深度量測","淹水感測器","淹水深度","cm"
"a3550f5f-34eb-4364-bd5d-c51a115ea6b7","107Q003民雄交流道","水利署","第五河川分署","3132015FL1070010","台電-民雄21西30北分12分4K-2411,FE-21","120.41805","23.553417","f8a0c40f-e727-48f2-bf89-10fa8ac764a8","直流電壓","民雄交流道_電池電壓","電池電壓量測","淹水感測器","電力","V"
"84e5f00a-fbb8-4c8b-99ab-14e95f40b1d1","108Q026六腳正義村","水利署","第五河川分署","3132015FL1080133","正義村","120.253654","23.481024","482eacc5-ccff-49ae-abea-0768dfa54411","淹水深度","正義村淹水高度","淹水高度量測(高度5cm以下每1HR回傳、5cm每10MIN回傳)","淹水感測器","淹水深度","cm"
"a3550f5f-34eb-4364-bd5d-c51a115ea6b7","107Q003民雄交流道","水利署","第五河川分署","3132015FL1070010","台電-民雄21西30北分12分4K-2411,FE-21","120.41805","23.553417","142e6a7c-327b-4433-a6b2-cdb1e82b825c","傳輸訊號強度","民雄交流道_NB訊號強度","訊號強度量測","淹水感測器","其他","dBm"
"a3550f5f-34eb-4364-bd5d-c51a115ea6b7","107Q003民雄交流道","水利署","第五河川分署","3132015FL1070010","台電-民雄21西30北分12分4K-2411,FE-21","120.41805","23.553417","d2c75301-09aa-4745-8240-493fefaf08e5","傳輸訊號強度","民雄交流道_4G訊號強度","訊號強度量測","淹水感測器","其他","dBm"
"6200bd5b-6b17-414c-8497-f4f6cef5473b","永靖竹仔腳淹水感知器淹水監控站","水利署","第四河川分署","3132014FLRD00037","埔心鄉羅厝路一段186號","120.51267","23.936558","5c4b5f00-7c07-4667-84a8-9059e564594e","淹水深度","永靖竹仔腳淹水感知器淹水監控站","地面淹水感測","淹水感測器","淹水深度","cm"
"f5e571b4-d685-452d-a7d3-f4a97b0cd9ad","田中八堡圳淹水監控站","水利署","第四河川分署","3132014FLRD00045","田中鎮中潭里民富街41巷14號","120.58258","23.86532","869900cf-e053-4f85-b63a-5dcc36862aa1","淹水深度","田中八堡圳淹水監控站","地面淹水感測","淹水感測器","淹水深度","cm"
"e58faf42-f3d2-45f0-9be7-8fca74ab8ac3","田中工業區淹水監控站","水利署","第四河川分署","3132014FLRD00047","田中工業區","120.5706","23.8488","769e508e-3c68-43d2-9a12-cffa275a6797","淹水深度","田中工業區淹水監控站","地面淹水感測","淹水感測器","淹水深度","cm"
"fc6430b8-eecf-4da3-b419-9115397fa871","田中和平路淹水監控站","水利署","第四河川分署","3132014FLRD00044","彰化縣田中鎮山腳五段61巷","120.6026","23.8711","670b0d50-c262-4bf2-a69e-6c998065c918","淹水深度","田中和平路淹水監控站","地面淹水感測","淹水感測器","淹水深度","cm"
"f83e1378-91f1-4062-b50c-1dc39f7b4186","田尾頂玄宮淹水監控站","水利署","第四河川分署","3132014FLRD00039","田尾龍鳳宮","120.5097","23.8964","fe4537d6-1b41-44e9-9f5f-5211c9be3cb7","淹水深度","田尾頂玄宮淹水監控站","地面淹水感測","淹水感測器","淹水深度","cm"
"81b93a28-d0e4-41f5-9a9c-7d1b86c9673c","田尾田溪路淹水監控站","水利署","第四河川分署","3132014FLRD00038","田尾田溪路","120.5129","23.8978","2d0509af-ca76-4b52-bd5c-c8caf55ba077","淹水深度","田尾田溪路淹水監控站","地面淹水感測","淹水感測器","淹水深度","cm"
"c8f0ec8a-b5e6-448c-b2cb-b2575d789eb6","雲林斗南仁德橋","水利署","第五河川分署","3132015RV1070001","斗南仁德橋下游橋樑上","120.49547","23.66735","5a74233c-233e-40fa-8ae3-208e0cda44b0","直流電壓","白河春暉橋 _電池電壓","電池電壓量測","淹水感測器","電力","V"
"562b781f-145d-4432-8444-a0e629b8bcad","光復鄉大華村-大華街107巷白鷺橋","水利署","第九河川分署","3132019FL004","花蓮縣光復鄉大進街6-10","121.42608","23.65408","8237baea-2907-4137-b1f8-640db3526c4c","淹水深度","光復鄉大華村-大華街107巷白鷺橋","淹水高度量測(高度0時每3HR回傳>10cm每5MIN回傳<10cm每10MIN回傳)","淹水感測器","淹水深度","cm"
"d3b23fbd-f736-4cfd-919f-636d80e8b437","108P007虎尾安慶里民主十路","水利署","第五河川分署","3132015FL1080115","安慶里民主十錄","120.43387","23.704807","34fd1448-7001-4ea7-8cc1-f1c98701a8ad","淹水深度","安慶里民主十路淹水高度","淹水高度量測(高度5cm以下每1HR回傳、5cm每10MIN回傳)","淹水感測器","淹水深度","cm"
"7566b5d9-83b9-4b84-862b-822657f44ecc","108P051水林尖山村元天宮","水利署","第五河川分署","3132015FL1080022","尖山村元天宮","120.22574","23.57076","c2f73fee-19ed-4306-96e4-81d7893d4101","淹水深度","尖山村元天宮淹水高度","淹水高度量測(高度5cm以下每1HR回傳、5cm每10MIN回傳)","淹水感測器","淹水深度","cm"
"eb54e2cc-5a68-4e3a-a997-7f84ae785b7c","108P053口湖成龍集會所","水利署","第五河川分署","3132015FL1080015","成龍集會所","120.166435","23.555414","cc75e58a-dfce-4b2f-a3a4-54448c2d3b98","淹水深度","成龍集會所淹水高度","淹水高度量測(高度5cm以下每1HR回傳、5cm每10MIN回傳)","淹水感測器","淹水深度","cm"
"b2773745-9077-4bcb-b15d-9dcb8a2fed19","107Q007朴子竹村里鴨母寮","水利署","第五河川分署","3132015FL1070014","朴子市公所-路燈022755","120.24009","23.43392","5823879b-a15e-4fdf-9b46-00f0d2e815bd","傳輸訊號強度","朴子竹安橋北側_4G訊號強度","訊號強度量測","淹水感測器","其他","dBm"
"d652f5c1-7c97-4d0e-ab94-c88ac0a0cc75","109Q001 朴子安福里狀元社區(雙溪口排水旁)","水利署","第五河川分署","3132015FL1090001","東石高中","120.25276","23.465029","ea93047f-627b-4c82-a61f-a0bcdc31c608","淹水深度","朴子安福里東石高中淹水高度","淹水高度量測(高度5cm以下每1HR回傳、5cm每10MIN回傳)","淹水感測器","淹水深度","cm"
"b2773745-9077-4bcb-b15d-9dcb8a2fed19","107Q007朴子竹村里鴨母寮","水利署","第五河川分署","3132015FL1070014","朴子市公所-路燈022755","120.24009","23.43392","c0a846fe-e68c-4d2a-9a83-a923a40b3a29","淹水深度","朴子竹村里鴨母寮_淹水深度","路面淹水深度量測","淹水感測器","淹水深度","cm"
"b2773745-9077-4bcb-b15d-9dcb8a2fed19","107Q007朴子竹村里鴨母寮","水利署","第五河川分署","3132015FL1070014","朴子市公所-路燈022755","120.24009","23.43392","2bfbb638-040f-4e11-9821-324a50cf3077","傳輸訊號強度","朴子竹安橋北側_NB訊號強度","訊號強度量測","淹水感測器","其他","dBm"
"80b18df5-a6ae-4b21-9fda-48cbdd8a1f22","Q竹崎大橋下游左側(107)","水利署","第五河川分署","3132015RV107DK01","竹崎大橋下游左側","120.54566","23.522717","94c1750c-25c3-456a-8f39-d4eeac392bf3","直流電壓","竹崎大橋下游左側_電池電壓","電池電壓量測","淹水感測器","電力","V"
"80b18df5-a6ae-4b21-9fda-48cbdd8a1f22","Q竹崎大橋下游左側(107)","水利署","第五河川分署","3132015RV107DK01","竹崎大橋下游左側","120.54566","23.522717","4c7cefa3-4d1c-4027-a741-268506128d32","傳輸訊號強度","竹崎大橋下游左側_NB訊號強度","訊號強度量測","淹水感測器","其他","dBm"
"80b18df5-a6ae-4b21-9fda-48cbdd8a1f22","Q竹崎大橋下游左側(107)","水利署","第五河川分署","3132015RV107DK01","竹崎大橋下游左側","120.54566","23.522717","c02df32e-ff57-4f1c-a63d-d9526ac74dee","傳輸訊號強度","竹崎大橋下游左側_4G訊號強度","訊號強度量測","淹水感測器","其他","dBm"
"ad6710a3-baef-4163-afc2-b99e7ba36484","107QRV001考試潭排水門","水利署","第五河川分署","3132015SD107GT01","考試潭排水門","120.164154","23.404396","1486b356-e1ae-4e51-a920-324ae4f8c390","直流電壓","考試潭排水門_電池電壓","電池電壓量測","淹水感測器","電力","V"
"590a73f8-fe25-40a9-9590-1b7dcdf2a27a","108Q049鹿草鹿草村新安宮","水利署","第五河川分署","3132015FL1080079","鹿草村新安宮","120.31153","23.415121","88a3bd71-4f41-4d92-b34a-6d4e33b294cf","淹水深度","西井村淹水高度","淹水高度量測(高度5cm以下每1HR回傳、5cm每10MIN回傳)","淹水感測器","淹水深度","cm"
"78fbd40d-33ef-4579-871f-29e297c06dfd","伸港六股排水淹水感測","水利署","第四河川分署","3132014FLRD00004","彰化縣伸港鄉大同村六股排水","120.49071","24.164757","6c3d55ed-0287-45d2-9ef3-b0d404e769af","淹水深度","伸港六股排水淹水","地面水淹水感測","淹水感測器","淹水深度","cm"
"189f1779-f4ea-4c41-aa3a-09f606986221","108P047口湖謝厝村蘇水尾","水利署","第五河川分署","3132015FL1080132","謝厝村蘇水尾","120.20681","23.583391","9d8b7ed9-8fa9-4f9e-9d6a-585b77a80ee9","淹水深度","沐藝鄉淹水高度","淹水高度量測(高度5cm以下每1HR回傳、5cm每10MIN回傳)","淹水感測器","淹水深度","cm"
"b20724f2-2c28-4987-b2dc-9506da17c277","秀水下崙排水淹水監控站","水利署","第四河川分署","3132014FLRD00021","彰化縣秀水鄉下崙村","120.5073","24.0314","2703180e-9bc6-4454-8e22-8d3c1b3f7aa0","淹水深度","秀水下崙排水淹水監控站","地面淹水感測","淹水感測器","淹水深度","cm"
"1bf5a5ad-7519-4e19-8445-9e608a7545bc","108P011虎尾興南里私立洋安幼稚園","水利署","第五河川分署","3132015FL1080124","興南里私立洋安幼稚園","120.43809","23.696749","cc5dfc56-2f8b-42a5-b9b5-4d1ba195952a","淹水深度","私立洋安幼稚園淹水高度","淹水高度量測(高度5cm以下每1HR回傳、5cm每10MIN回傳)","淹水感測器","淹水深度","cm"
"7863c15c-b457-46ba-aae2-e1e3e5560a41","108Q010民雄東榮村全益汽修廠","水利署","第五河川分署","3132015FL1080029","東榮村全益汽修廠","120.43257","23.550814","c8ee52bc-3bdd-4ce8-8c29-a48d99b90c8d","淹水深度","私立協志工商淹水高度","淹水高度量測(高度5cm以下每1HR回傳、5cm每10MIN回傳)","淹水感測器","淹水深度","cm"
"656f782d-468a-41f4-a061-91ef617dd289","秀水番社排淹水監控站","水利署","第四河川分署","3132014FLRD00020","秀水鄉金陵村安南巷25之2號","120.5095","24.0068","a327a2f8-a15a-4eda-91f6-e2b1bf50ec26","淹水深度","秀水番社排淹水監控站","地面淹水感測","淹水感測器","淹水深度","cm"
"93df25d4-47e3-481a-b1b1-b14a16a00e1f","佳冬鄉_焰溫村炯興路","水利署","第七河川分署","3132017FL4014","屏東縣佳冬鄉","120.5231","22.4224","b046a2a2-b7ff-465e-82a1-e8d6503da498","淹水深度","佳冬鄉_焰溫村_淹水深度","路面淹水深度量測","淹水感測器","淹水深度","cm"
"2cc2e9d7-50d5-4004-a1ac-79d6dc4a5511","108P038元長下寮村7-ELEVEN 元東門市","水利署","第五河川分署","3132015FL1080078","下寮村7-ELEVEN元東門市","120.336266","23.618853","c8da6c3c-5266-4b8d-a4e3-dd64098e9ac8","淹水深度","和平郵局淹水高度","淹水高度量測(高度5cm以下每1HR回傳、5cm每10MIN回傳)","淹水感測器","淹水深度","cm"
"53260f11-ab2a-44a6-89d1-054a17d56383","和美仁美市場淹水監控站","水利署","第四河川分署","3132014FLRD00007","彰化縣和美鎮","120.4963","24.1088","cb7009f4-c76f-43c8-8459-739a0ffe8c0c","淹水深度","和美仁美市場淹水監控站","地面淹水感測","淹水感測器","淹水深度","cm"
"442cdbad-32d5-4084-8f05-ca86a8f2112a","和美地政事務所","水利署","第四河川分署","3132014FLRD00005","彰化縣和美","120.4984","24.1178","f669ef49-8d0f-4e39-9c6e-d71244c14c8d","淹水深度","和美地政事務所","地面淹水感測","淹水感測器","淹水深度","cm"
"6a670556-99ea-447d-8b03-8069038cde2e","108P015土庫崙內里昇嶠博美犬舍","水利署","第五河川分署","3132015FL1080136","崙內里昇嶠博美犬舍","120.358955","23.68677","551da333-61eb-4670-be55-cd17348a5991","淹水深度","昇嶠博美犬舍淹水高度","淹水高度量測(高度5cm以下每1HR回傳、5cm每10MIN回傳)","淹水感測器","淹水深度","cm"
"63125a79-2ad2-463a-a6fb-87a3b61df6cb","富里鄉明里村-近福德祠水尺 ","水利署","第九河川分署","3132019FL008","明里村近福德祠水尺","121.2571","23.19971","d6ed2544-e7a0-4627-b3fb-8317db1841ad","淹水深度","富里鄉明里村-近福德祠水尺","淹水高度量測(高度0時每3HR回傳>10cm每5MIN回傳<10cm每10MIN回傳)","淹水感測器","淹水深度","cm"
"74249b35-891e-479f-ad77-34c6e7434789","107Q009東石西崙里栗仔崙","水利署","第五河川分署","3132015FL1070016","嘉義縣東石鄉157縣道317號路口電桿","120.18707","23.425978","439a68e4-f0a3-4d0d-8faa-08a199adbafa","傳輸訊號強度","東石157縣道_NB訊號強度","訊號強度量測","淹水感測器","其他","dBm"
"4e64f40b-1322-4e6b-9b80-960d23655b08","108Q043東石掌潭村白水湖","水利署","第五河川分署","3132015FL1080035","掌潭村白水湖","120.15311","23.421936","5df9b0ee-9611-452a-894e-ea5a0fe5dc74","淹水深度","東石掌潭村白水湖淹水高度","淹水高度量測(高度5cm以下每1HR回傳、5cm每10MIN回傳)","淹水感測器","淹水深度","cm"
"4ad7a52c-c011-4775-af3d-51d371d5e63f","107Q010東石掌潭村掌潭","水利署","第五河川分署","3132015FL1070017","","120.17317","23.418444","813ddc88-f83d-44e3-b5da-508534f56509","淹水深度","東石掌潭村掌潭_淹水深度","路面淹水深度量測","淹水感測器","淹水深度","cm"
"4ad7a52c-c011-4775-af3d-51d371d5e63f","107Q010東石掌潭村掌潭","水利署","第五河川分署","3132015FL1070017","東石鄉公所-保安宮正門前路燈桿","120.17317","23.418444","5be77e01-43de-4b77-9954-ab98d4fc44f4","傳輸訊號強度","東石保安宮_NB訊號強度","訊號強度量測","淹水感測器","其他","dBm"
"74249b35-891e-479f-ad77-34c6e7434789","107Q009東石西崙里栗仔崙","水利署","第五河川分署","3132015FL1070016","嘉義縣東石鄉157縣道317號路口電桿","120.18707","23.425978","bc9a4062-37d3-465a-b771-43892249d2b5","傳輸訊號強度","東石157縣道_4G訊號強度","訊號強度量測","淹水感測器","其他","dBm"
"74249b35-891e-479f-ad77-34c6e7434789","107Q009東石西崙里栗仔崙","水利署","第五河川分署","3132015FL1070016","嘉義縣東石鄉157縣道317號路口電桿","120.18707","23.425978","d3dfccff-3192-4265-bbf4-28e2e84a94cf","直流電壓","東石157縣道_電池電壓","電池電壓量測","淹水感測器","電力","V"
"5b984860-81f8-4ac9-9dd1-569d164b4ea0","107Q005東石海埔地","水利署","第五河川分署","3132015FL1070012","東石鄉公所-路燈090235","120.140686","23.45422","b21fe5bf-51ee-48b0-bddf-8780a23e30ab","淹水深度","東石海埔地_淹水深度","路面淹水深度量測","淹水感測器","淹水深度","cm"
"4ad7a52c-c011-4775-af3d-51d371d5e63f","107Q010東石掌潭村掌潭","水利署","第五河川分署","3132015FL1070017","東石鄉公所-保安宮正門前路燈桿","120.17317","23.418444","e74682ab-277c-4189-b3c8-4f418663dbfa","傳輸訊號強度","東石保安宮_4G訊號強度","訊號強度量測","淹水感測器","其他","dBm"
"5b984860-81f8-4ac9-9dd1-569d164b4ea0","107Q005東石海埔地","水利署","第五河川分署","3132015FL1070012","東石鄉公所-路燈090235","120.140686","23.45422","b7f6025e-762a-4449-8215-7446902a9e4f","傳輸訊號強度","東石黎明六路_NB訊號強度","訊號強度量測","淹水感測器","其他","dBm"
"4f43c05c-6e00-471c-94b8-3688c94132f8","111Q002東石過溝國中","水利署","第五河川分署","3132015FL111Q002","東石過溝國中","120.18357","23.421762","8803e12b-8d0f-47d3-9b76-b01f05b03b75","淹水深度","東石過溝國中淹水深度","淹水高度量測(高度5cm以下每1HR回傳、5cm每10MIN回傳)","淹水感測器","淹水深度","cm"
"5b984860-81f8-4ac9-9dd1-569d164b4ea0","107Q005東石海埔地","水利署","第五河川分署","3132015FL1070012","東石鄉公所-路燈090235","120.140686","23.45422","f05c3eb5-82c1-46f5-b8b8-3c68f03571c1","傳輸訊號強度","東石黎明六路_4G訊號強度","訊號強度量測","淹水感測器","其他","dBm"
"5b984860-81f8-4ac9-9dd1-569d164b4ea0","107Q005東石海埔地","水利署","第五河川分署","3132015FL1070012","東石鄉公所-路燈090235","120.140686","23.45422","e3b83910-f0c2-42eb-aad8-c673c1a1bd91","直流電壓","東石黎明六路_電池電壓","電池電壓量測","淹水感測器","電力","V"
"c6da4d65-dd23-40dc-8148-5fc54ff12b1a","枋寮鄉_隆安幼兒園","水利署","第七河川分署","3132017FL4011","屏東縣枋寮鄉","120.6044","22.3627","2498464b-e5f5-4199-8201-6841f3255dc7","淹水深度","枋寮鄉_隆安幼兒園_淹水深度","路面淹水深度量測","淹水感測器","淹水深度","cm"
"ae0652cb-2f34-4a47-ab20-a91845ac6774","東港鎮_東港派出所","水利署","第七河川分署","3132017FL4006","東港派出所","120.46308","22.46569","c0e3ac5a-e679-4e35-a551-b918a9cdb55b","淹水深度","東港鎮_東港派出所_淹水深度","路面淹水深度量測","淹水感測器","淹水深度","cm"
"9debacd7-d006-4759-9b27-8fa143650457","枋寮鄉_枋寮高中","水利署","第七河川分署","3132017FL4008","枋寮高中","120.59133","22.36977","92408075-5353-46bc-9d29-e7bc92a60131","淹水深度","枋寮鄉_枋寮高中_淹水深度","路面淹水深度量測","淹水感測器","淹水深度","cm"
"5b0326a8-aa3c-4aec-b827-a2395db8b3f3","枋寮鄉_義民路","水利署","第七河川分署","3132017FL4007","義民路","120.57354","22.38331","e3ce76e3-58a1-403f-8421-70e1a0a8bfcd","淹水深度","枋寮鄉_義民路_淹水深度","路面淹水深度量測","淹水感測器","淹水深度","cm"
"95edb732-075f-45f0-a94e-a9b8c351d4cf","林邊鄉_林邊郵局","水利署","第七河川分署","3132017FL4015","屏東縣林邊鄉","120.5162","22.4335","6b428b02-f066-4642-8a26-5fb4098d6743","淹水深度","林邊鄉_林邊郵局_淹水深度","路面淹水深度量測","淹水感測器","淹水深度","cm"
"4347aa60-bede-4182-947e-b4b0c75bd3ec","林邊鄉_中林路水源地","水利署","第七河川分署","3132017FL4116","屏東縣林邊鄉","120.5202","22.438456","af7d42e5-803a-4e82-956a-f1f111095012","淹水深度","林邊鄉_中林路水源地_淹水深度","淹水深度量測","淹水感測器","淹水深度","cm"
"1d629f8c-bc36-4c24-a322-a73635e3359c","林邊鄉_仁鵬遊湖公司","水利署","第七河川分署","3132017FL4017","屏東縣林邊鄉","120.5001","22.4518","b9efa464-6e22-4a06-bc54-3ff94dd29285","淹水深度","林邊鄉_大鵬灣_淹水深度","路面淹水深度量測","淹水感測器","淹水深度","cm"
"c0a2badb-dfe3-4ae4-b449-e070ee7346dd","社頭石坑2巷淹水監控站","水利署","第四河川分署","3132014FLRD00036","社頭鄉仁和村山腳路3段69號","120.6048","23.915","4c51172a-36be-449a-9705-440ef2195b07","淹水深度","社頭石坑2巷淹水監控站","地面淹水感測","淹水感測器","淹水深度","cm"
"8a436c52-0fbb-48ba-b51d-f8d4e64833f4","社頭山腳路252巷淹水監控站","水利署","第四河川分署","3132014FLRD00035","社頭鄉平和村山腳路252巷159號","120.6063","23.9186","e8eb2ced-4912-4289-8abb-cd345bd518b5","淹水深度","社頭山腳路252巷淹水監控站","地面淹水感測","淹水感測器","淹水深度","cm"
"969cc500-c74c-4aea-9f2a-687fa2135d92","107P003虎尾延平里下湳子","水利署","第五河川分署","3132015FL1070003","台電-下南2A分4K-2339,AD-68","120.404785","23.67956","63fd305e-128a-4b8b-b1f0-cbf306301c3d","傳輸訊號強度","虎尾下湳子 _NB訊號強度","訊號強度量測","淹水感測器","其他","dBm"
"e375e985-80ae-4b6e-a30f-8c061351f2a7","107P002虎尾西安里文化路","水利署","第五河川分署","3132015FL1070002","台電-虎化17","120.430824","23.700842","eb1260b8-d553-47c5-8761-dc9b1fe98061","淹水深度","虎尾西安里文化路_淹水深度","路面淹水深度量測","淹水感測器","淹水深度","cm"
"e375e985-80ae-4b6e-a30f-8c061351f2a7","107P002虎尾西安里文化路","水利署","第五河川分署","3132015FL1070002","台電-虎化17","120.430824","23.700842","3c98891d-25d7-4527-87a3-a75985f0b21f","傳輸訊號強度","虎尾文化路 _NB訊號強度","訊號強度量測","淹水感測器","其他","dBm"
"f332a84a-2847-4155-8e58-f696f15630c6","芳苑草湖郵局淹水監控站","水利署","第四河川分署","3132014FLRD00029","彰化縣芳苑鄉二溪路草二段504號","120.3843","23.9585","eca1edea-9865-470f-9703-5dca618de135","淹水深度","芳苑草湖郵局淹水監控站","地面淹水感測","淹水感測器","淹水深度","cm"
"fb07c34d-a392-4092-8eda-4b135391f4e9","芳苑埤腳排水淹水監控站","水利署","第四河川分署","3132014FLRD00030","芳苑鄉太平路永興段142號","120.3304","23.9403","716a262e-0688-4bfa-9e09-7f3058333afc","淹水深度","芳苑埤腳排水淹水監控站","地面淹水感測","淹水感測器","淹水深度","cm"
"e375e985-80ae-4b6e-a30f-8c061351f2a7","107P002虎尾西安里文化路","水利署","第五河川分署","3132015FL1070002","台電-虎化17","120.430824","23.700842","7a4a1783-40f4-468f-a21f-56641449f661","傳輸訊號強度","虎尾文化路 _4G訊號強度","訊號強度量測","淹水感測器","其他","dBm"
"969cc500-c74c-4aea-9f2a-687fa2135d92","107P003虎尾延平里下湳子","水利署","第五河川分署","3132015FL1070003","台電-下南2A分4K-2339,AD-68","120.404785","23.67956","1081256c-683a-4726-874a-7e74bb506b81","淹水深度","虎尾延平里下湳子_淹水深度","路面淹水深度量測","淹水感測器","淹水深度","cm"
"969cc500-c74c-4aea-9f2a-687fa2135d92","107P003虎尾延平里下湳子","水利署","第五河川分署","3132015FL1070003","台電-下南2A分4K-2339,AD-68","120.404785","23.67956","3f706dc0-2637-4383-9f4f-fc0a3a3da7e9","傳輸訊號強度","虎尾下湳子 _4G訊號強度","訊號強度量測","淹水感測器","其他","dBm"
"e375e985-80ae-4b6e-a30f-8c061351f2a7","107P002虎尾西安里文化路","水利署","第五河川分署","3132015FL1070002","台電-虎化17","120.430824","23.700842","1e11db4b-82b4-4b0a-8a88-c69450d71f67","直流電壓","虎尾文化路 _電池電壓","電池電壓量測","淹水感測器","電力","V"
"969cc500-c74c-4aea-9f2a-687fa2135d92","107P003虎尾延平里下湳子","水利署","第五河川分署","3132015FL1070003","台電-下南2A分4K-2339,AD-68","120.404785","23.67956","390c06ea-c04d-4496-a4db-3d2d1ae645b5","直流電壓","虎尾下湳子 _電池電壓","電池電壓量測","淹水感測器","電力","V"
"b1588c8d-bfe7-4f26-805c-70d028ca8832","長治鄉_繁華郵局","水利署","第七河川分署","3132017FL4019","屏東縣長治鄉","120.5732","22.7022","0b651c2d-73c4-48c5-9126-97077e728900","淹水深度","長治鄉_繁華村郵局_淹水深度","路面淹水深度量測","淹水感測器","淹水深度","cm"
"45f623e3-d03e-4cfe-b34d-813736e96962","長治鄉_神農路","水利署","第七河川分署","3132017FL4020","屏東縣長治鄉","120.5366","22.7076","af3bcfc7-408f-4efc-9345-5ba05e7e3e5f","淹水深度","長治鄉_神農路_淹水深度","路面淹水深度量測","淹水感測器","淹水深度","cm"
"5387cfa7-452c-472a-9c70-9e8ca9e5b187","110P001元長潭東村禾耕豐農產加工","水利署","第五河川分署","3132015FL1080042","潭東村南安府1","120.29268","23.641262","d7456bfb-ef5f-4514-9714-831f9c1c5c4b","淹水深度","南安府淹水高度","淹水高度量測(高度5cm以下每1HR回傳、5cm每10MIN回傳)","淹水感測器","淹水深度","cm"
"d7b70548-528a-4656-9d92-5fc7e5f9bd4a","南州鄉_同安國小","水利署","第七河川分署","3132017FL4018","屏東縣南州鄉","120.5223","22.4723","d4721f88-1309-474b-a329-20e7b7a74909","淹水深度","南州鄉_同安國小_淹水深度","路面淹水深度量測","淹水感測器","淹水深度","cm"
"d4c2fd9d-24ee-41f1-a18b-eaa37db33d5c","108P005台西五港村五條港霍安宮","水利署","第五河川分署","3132015FL1080056","五港村五條港霍安宮","120.20035","23.71636","6f350c6b-8c2b-464b-a453-19b85f6bc29c","淹水深度","南通釣具行淹水高度","淹水高度量測(高度5cm以下每1HR回傳、5cm每10MIN回傳)","淹水感測器","淹水深度","cm"
"584cf0b9-2afc-4baf-a1ca-a34808329749","108P006台西五港村瓦厝東側","水利署","第五河川分署","3132015FL1080058","五港村瓦厝東側","120.210754","23.710455","e85970fe-74d3-44d8-8989-cd9d454c380f","淹水深度","威宇汽車工藝淹水高度","淹水高度量測(高度5cm以下每1HR回傳、5cm每10MIN回傳)","淹水感測器","淹水深度","cm"
"a65543f1-28b7-473c-bb07-02aff416d651","108Q027太保後庄里","水利署","第五河川分署","3132015FL1080096","後庄里","120.326035","23.470318","e59d7f87-66a1-4c92-9dc1-86ab5ba6e828","淹水深度","後庄里淹水高度","淹水高度量測(高度5cm以下每1HR回傳、5cm每10MIN回傳)","淹水感測器","淹水深度","cm"
"b9e524b7-427f-4e8b-a48b-23a3e7d8a15a","108P058口湖後厝村華鄉民宿","水利署","第五河川分署","3132015FL1080045","後厝村華鄉民宿","120.20043","23.543112","c2e47da5-f5bc-4232-9da2-dba2e26636e4","淹水深度","後厝村開元宮淹水高度","淹水高度量測(高度5cm以下每1HR回傳、5cm每10MIN回傳)","淹水感測器","淹水深度","cm"
"e051e3f1-3eb6-456b-8342-c2b267bdd245","恆春鎮_湖內路","水利署","第七河川分署","3132017FL4010","湖內路","120.74743","21.99188","a612b0be-205d-4d8a-b756-db5c8b25f809","淹水深度","恆春鎮_湖內路_淹水深度","路面淹水深度量測","淹水感測器","淹水深度","cm"
"3adb89bc-d11e-4c4e-87d2-ad4ff05f5730","恆春鎮_恆南路","水利署","第七河川分署","3132017FL4009","恆南路","120.74548","21.99593","96d05561-7e35-4f87-90f1-7c3ead761fee","淹水深度","恆春鎮_恆南路_淹水深度","路面淹水深度量測","淹水感測器","淹水深度","cm"
"2ad2ffc6-8c56-42c6-8ea1-55005dd99081","108Q052鹿草施家村辦公處","水利署","第五河川分署","3132015FL1080138","施家村辦公處","120.312355","23.389652","53b798bb-0b39-45b1-bc34-f58a97f4490c","淹水深度","施家村淹水高度","淹水高度量測(高度5cm以下每1HR回傳、5cm每10MIN回傳)","淹水感測器","淹水深度","cm"
"83a20c79-d671-4ca2-8447-ad470387ddcc","萬榮鄉紅葉村-紅葉國小","水利署","第九河川分署","3132019FL011","紅葉國小","121.3445","23.49485","38f48295-1623-4395-ae3d-a04dddd97968","淹水深度","萬榮鄉紅葉村-紅葉國小","淹水高度量測(高度0時每3HR回傳>10cm每5MIN回傳<10cm每10MIN回傳)","淹水感測器","淹水深度","cm"
"6cf65d76-500c-472d-bc4f-54b707aa8840","美濃區_美濃浸信會","水利署","第七河川分署","3132017FL4021","屏東縣美濃區","120.5477","22.8974","9bb920f7-0434-4821-8b47-8ea5b97c70b1","淹水深度","美濃區_浸信會_淹水深度","路面淹水深度量測","淹水感測器","淹水深度","cm"
"9a31a388-6057-4503-9695-ac373e57646d","美濃區_天后宮","水利署","第七河川分署","3132017FL4001","高雄市美濃區永安路269巷1號","120.53998","22.89857","aad74e1c-7789-496d-b1e3-ef45d8b6e218","淹水深度","美濃區_天后宮_淹水深度","路面淹水深度量測","淹水感測器","淹水深度","cm"
"0a429e45-6f29-482d-adfb-5894cd37dc29","美濃區_中正一路","水利署","第七河川分署","3132017FL4002","中正一路","120.54183","22.90036","82d387d2-f8d0-4047-b964-a19bf5274f89","淹水深度","美濃區_中正一路_淹水深度","路面淹水深度量測","淹水感測器","淹水深度","cm"
"5228a3a4-eeeb-4f7c-992b-fcdae3173ad4","員林山腳路淹水監控站","水利署","第四河川分署","3132014FLRD00025","員林巿鎮興里山腳路四段155號","120.60196","23.966717","459dec2d-43b9-42bb-b2e6-0ef6380283ba","淹水深度","員林山腳路淹水監控站","地面淹水感測","淹水感測器","淹水深度","cm"
"acc557f3-289d-45c1-92eb-a85eee00be04","埔心興霖路380巷淹水監控站","水利署","第四河川分署","3132014FLRD00032","埔心鄉舊館村興霖路380巷39號","120.5249","23.9585","6702134f-3ea5-4756-8829-6851105d7c9a","淹水深度","埔心興霖路380巷淹水監控站","地面淹水感測","淹水感測器","淹水深度","cm"
"8f3f4c5c-66d7-42f1-808f-801b9690d9a0","108I003西區紅瓦里重慶二街附近","水利署","第五河川分署","3132015FL1080047","紅瓦里重慶二街附近","120.43037","23.459888","6ae8e148-70b4-4261-9f42-ff28002285fd","淹水深度","重慶二街附近淹水高度","淹水高度量測(高度5cm以下每1HR回傳、5cm每10MIN回傳)","淹水感測器","淹水深度","cm"
"dc6aec1b-e25e-43c3-8f75-003f0a51c9b7","埔心經口路57巷淹水監控站","水利署","第四河川分署","3132014FLRD00033","埔心鄉經口村經口路62號","120.5568","23.9462","51e7436f-67e9-4ce2-bdf5-8485ccd6d736","淹水深度","埔心經口路57巷淹水監控站","地面淹水感測","淹水感測器","淹水深度","cm"
"2784418c-ce89-4cb2-9642-a20078b156ef","埔心太平路淹水監控站","水利署","第四河川分署","3132014FLRD00034","彰化縣埔心鄉太平路716巷","120.54409","23.937128","ca118075-29c1-451b-b872-7c18a08adcb8","淹水深度","埔心太平路淹水監控站","地面淹水感測","淹水感測器","淹水深度","cm"
"070848ec-e8c2-453c-a499-435638f6cf55","員林南潭路1巷淹水監控站","水利署","第四河川分署","3132014FLRD00024","員林巿南興里南潭路1巷30弄24號","120.5603","23.9614","21220dbb-5a15-4ffa-914d-c268522591ba","淹水深度","員林南潭路1巷淹水監控站","地面淹水感測","淹水感測器","淹水深度","cm"
"ca2bd8b1-c176-4666-853c-fd935f08de9d","埔鹽埔鹽排水淹水監控站","水利署","第四河川分署","3132014FLRD00019","彰化縣埔鹽鄉南新村","120.46003","23.9941","85e473cd-52a5-4733-a844-b5a348593546","淹水深度","埔鹽埔鹽排水淹水監控站","地面淹水感測","淹水感測器","淹水深度","cm"
"fb58ebc3-a77c-42b3-8318-030ba872cb20","埔鹽大有排水淹水監控站","水利署","第四河川分署","3132014FLRD00017","彰化縣埔鹽鄉","120.4441","24.0209","afcf664f-9059-4007-b198-d4aff383d4ff","淹水深度","埔鹽大有排水淹水監控站","地面淹水感測","淹水感測器","淹水深度","cm"
"603a3d7a-cc5a-4105-bca0-5e195cc07c93","埔鹽瓦瑤排水淹水監控站","水利署","第四河川分署","3132014FLRD00018","彰化縣埔鹽鄉","120.4612","24.004","da38d7bb-489d-400b-96d6-5d183c37189e","淹水深度","埔鹽瓦瑤排水淹水監控站","地面淹水感測","淹水感測器","淹水深度","cm"
"e2432168-c312-4964-b9e8-a82d8b1b74bd","108Q037朴子崁後里埔中央","水利署","第五河川分署","3132015FL1080120","崁後里埔中央","120.22705","23.444075","b9e93425-9327-41f0-863a-7efadb04fd64","淹水深度","崁後里1淹水高度","淹水高度量測(高度5cm以下每1HR回傳、5cm每10MIN回傳)","淹水感測器","淹水深度","cm"
"168a7312-43fa-468b-83b3-cac1b1bc22ed","吉安鄉仁和村-海岸路334號","水利署","第九河川分署","3132019FL003","花蓮縣花蓮市豐村路113號","121.59549","24.00624","f5cd2e2a-5314-4677-9e63-ba8ac6e00003","淹水深度","吉安鄉仁和村-海岸路334號","淹水高度量測(高度0時每3HR回傳>10cm每5MIN回傳<10cm每10MIN回傳)","淹水感測器","淹水深度","cm"
"364ca274-82d8-44c9-8545-9f0191a276d0","108P036大埤北鎮村浚騰汽車","水利署","第五河川分署","3132015FL1080128","北鎮村浚騰汽車","120.38993","23.637018","89fb1e7c-1b95-4874-8e0d-83463d48cf80","淹水深度","浚騰汽車淹水高度","淹水高度量測(高度5cm以下每1HR回傳、5cm每10MIN回傳)","淹水感測器","淹水深度","cm"
"701f19c4-3630-49fb-a3ba-fb30d91752ae","108P012褒忠馬鳴村佳宏寵物畜牧場","水利署","第五河川分署","3132015FL1080145","馬鳴村佳宏寵物畜牧場","120.2779","23.6945","a89a0552-1216-432e-b55d-bcc9d69e81d5","淹水深度","馬鳴橋、佳宏寵物畜牧場淹水高度","淹水高度量測(高度5cm以下每1HR回傳、5cm每10MIN回傳)","淹水感測器","淹水深度","cm"
"c8a8b81f-a1ee-43a1-9b50-a211f0964beb","壽豐鄉共和村-退輔會農場旁水尺 ","水利署","第九河川分署","3132019FL010","退輔會農場旁水尺","121.5147","23.87166","5eb0dbf5-b499-435f-b342-880f901c2366","淹水深度","壽豐鄉共和村-退輔會農場旁水尺","淹水高度量測(高度0時每3HR回傳>10cm每5MIN回傳<10cm每10MIN回傳)","淹水感測器","淹水深度","cm"
"ae1914cf-6170-4c7c-8495-d105c7ffdbc0","108P025土庫埤腳里福安宮三山國王廟","水利署","第五河川分署","3132015FL1080021","埤腳里福安宮三山國王廟","120.347694","23.66673","5eafb6f0-da64-4ffc-bb6a-47df79ad20de","淹水深度","埤腳里福安宮三山國王廟淹水高度","淹水高度量測(高度5cm以下每1HR回傳、5cm每10MIN回傳)","淹水感測器","淹水深度","cm"
"b5e709d0-e519-4c90-a881-68678b2ab611","108P022土庫埤腳里辦公處","水利署","第五河川分署","3132015FL1080137","埤腳里辦公處","120.3638","23.675863","99a3380b-92a2-43cb-8769-0390afa13e76","淹水深度","埤腳里辦公處淹水高度","淹水高度量測(高度5cm以下每1HR回傳、5cm每10MIN回傳)","淹水感測器","淹水深度","cm"
"63e9a933-7c1c-4cc5-903b-0036535cdd8f","108Q013六腳港美村六腳鄉立幼兒園","水利署","第五河川分署","3132015FL1080006","港美村六腳鄉立幼兒園","120.29208","23.526794","a0226d79-7ae2-4e74-b89a-9a069ab7bf0d","淹水深度","惟俊實業有限公司淹水高度","淹水高度量測(高度5cm以下每1HR回傳、5cm每10MIN回傳)","淹水感測器","淹水深度","cm"
"13075a0b-f029-4bf1-9902-6756e1090389","108Q068竹崎鄉灣橋村圓崇國小","水利署","第五河川分署","3132015FL1080052","灣橋村圓崇國小","120.50607","23.490454","2a84b7c7-7ecf-4f73-ab3a-ff2e32e9ff38","淹水深度","淹水高度","淹水高度量測(高度5cm以下每1HR回傳、5cm每10MIN回傳)","淹水感測器","淹水深度","cm"
"732db93c-ffbf-4dc0-92ba-fd52b79fc757","1-南投草屯北投里碧興路二段","水利署","第三河川分署","3132013FLSHJ0001","南投草屯北投里碧興路二段","120.649","23.9917","3bd62f59-bde3-4b9b-913a-b9aab25e28f7","淹水深度","淹水深度(3132013FLSHJ0001)","淹水深度量測","淹水感測器","淹水深度","cm"
"b5a70e48-aab9-4e4e-9693-f5833a2345e8","108Q077溪口鄉林腳村鎮亨宮","水利署","第五河川分署","3132015FL1080032","林腳村鎮亨宮","120.36953","23.601402","4f25004f-4a8f-4c66-a463-19eeb9765d04","淹水深度","淹水高度","淹水高度量測(高度5cm以下每1HR回傳、5cm每10MIN回傳)","淹水感測器","淹水深度","cm"
"8637de38-d60a-48cf-8447-69806f9350f8","108Q057太保魚寮保安宮三山國王","水利署","第五河川分署","3132015FL1080106","魚寮保安宮三山國王","120.355286","23.481667","1de1a12d-3bbb-44d6-a9f2-642c5b2cf564","淹水深度","淹水高度","淹水高度量測(高度5cm以下每1HR回傳、5cm每10MIN回傳)","淹水感測器","淹水深度","cm"
"e58e6095-158b-4e54-bdb1-c9cfe4f3258f","108Q074鹿草鄉豐稠村明安宮","水利署","第五河川分署","3132015FL1080107","豐稠村明安宮","120.28855","23.417192","ee293784-31c6-4de1-82c8-6a4ab8c1147e","淹水深度","淹水高度","淹水高度量測(高度5cm以下每1HR回傳、5cm每10MIN回傳)","淹水感測器","淹水深度","cm"
"683c6c97-f2ca-47d5-b61d-9bffa244516f","108Q056太保市梅埔里辦公處","水利署","第五河川分署","3132015FL1080037","梅埔里辦公處","120.339775","23.442202","eeccfdc0-19cc-4018-8f32-181c300768a6","淹水深度","淹水高度","淹水高度量測(高度5cm以下每1HR回傳、5cm每10MIN回傳)","淹水感測器","淹水深度","cm"
"38776cf2-e91a-4a3a-b307-e76aab482248","108Q066民雄鄉大崎村大崎抽水站","水利署","第五河川分署","3132015FL1080101","大崎村大崎抽水站","120.45809","23.515303","47a3df39-77c1-4ab8-80e2-390ea8d22b8d","淹水深度","淹水高度","淹水高度量測(高度5cm以下每1HR回傳、5cm每10MIN回傳)","淹水感測器","淹水深度","cm"
"105b9fb7-8b2c-4376-be50-4afb16e08e8b","108Q062布袋鎮貴舍里辦公處","水利署","第五河川分署","3132015FL1080112","貴舍里辦公處","120.211365","23.425337","3aaa498f-700c-4f60-9fe5-2f9d000ed67c","淹水深度","淹水高度","淹水高度量測(高度5cm以下每1HR回傳、5cm每10MIN回傳)","淹水感測器","淹水深度","cm"
"cc05a1d3-6035-4aec-b109-656bbb104591","108Q065民雄鄉豐收村新瑞義瓷器五金","水利署","第五河川分署","3132015FL1080086","豐收村新瑞義瓷器五金","120.4463","23.553116","357c90ef-4ba0-4237-86f3-3f5bc0e0ac81","淹水深度","淹水高度","淹水高度量測(高度5cm以下每1HR回傳、5cm每10MIN回傳)","淹水感測器","淹水深度","cm"
"00e9d449-ebac-4980-a715-e9db5eb2c8a6","108Q072梅山鄉梅東村萬應廟","水利署","第五河川分署","3132015FL1080091","梅東村萬應廟","120.5606","23.576796","48c3b3fb-59cf-4535-a407-3e9dc4a4d0f5","淹水深度","淹水高度","淹水高度量測(高度5cm以下每1HR回傳、5cm每10MIN回傳)","淹水感測器","淹水深度","cm"
"0b3e6892-e5db-4c72-b11f-86a9d9212d01","108Q069竹崎鄉復金村竹崎分局復金派出所","水利署","第五河川分署","3132015FL1080108","復金村竹崎分局復金派出所","120.570274","23.526043","d91b7155-867d-4a43-b858-1da79e4567d1","淹水深度","淹水高度","淹水高度量測(高度5cm以下每1HR回傳、5cm每10MIN回傳)","淹水感測器","淹水深度","cm"
"b53d593c-c8e1-4fb9-b271-d05721c6dad5","108Q067朴子市崁前里竹村國小","水利署","第五河川分署","3132015FL1080081","崁前里竹村國小","120.23579","23.441149","ea4f9a49-a832-46f3-8a0a-361f7d267ad5","淹水深度","淹水高度","淹水高度量測(高度5cm以下每1HR回傳、5cm每10MIN回傳)","淹水感測器","淹水深度","cm"
"b246a0f6-876e-46c5-82f4-373bcd30126c","108Q063布袋鎮復興里新塭嘉應廟","水利署","第五河川分署","3132015FL1080097","鎮復興里新塭嘉應廟","120.1612","23.326881","479ef0d1-267d-4e10-a1bb-361fc54e8952","淹水深度","淹水高度","淹水高度量測(高度5cm以下每1HR回傳、5cm每10MIN回傳)","淹水感測器","淹水深度","cm"
"474c131e-7cfc-41eb-b868-406b46e9a70f","9-南投縣東山路排水與貓羅溪匯流口","水利署","第三河川分署","3132013FLSHJ0009","南投縣東山路排水與貓羅溪匯流口","120.697","23.9151","36a6ff6c-0304-4c50-ae17-f32d15d16899","淹水深度","淹水深度(3132013FLSHJ0009)","淹水深度量測","淹水感測器","淹水深度","cm"
"87162e4b-5a2b-4d8c-b987-9140b8c0abe1","108Q076新港鄉大潭村後底湖","水利署","第五河川分署","3132015FL1080004","大潭村後底湖","120.36633","23.539183","5a25f20b-31ce-4635-97dc-131ca4b73284","淹水深度","淹水高度","淹水高度量測(高度5cm以下每1HR回傳、5cm每10MIN回傳)","淹水感測器","淹水深度","cm"
"3e8ec194-7659-4571-af76-2e6626c8ad8a","108P041口湖埔北村善德爺","水利署","第五河川分署","3132015FL1080031","埔北村善德爺","120.193016","23.615206","e0c63d1e-7724-4a8d-a24e-0e242746bfc1","淹水深度","淹水高度_108P041口湖埔北村善德爺","淹水高度量測(高度5cm以下每1HR回傳、5cm每10MIN回傳)","淹水感測器","淹水深度","cm"
"c461975f-b8c7-4c11-a7a4-3de11eb87393","3-南投市漳興里華陽路至貓羅溪環河道路間","水利署","第三河川分署","3132013FLSHJ0003","南投市漳興里華陽路至貓羅溪環河道路間","120.688","23.9368","9fa1951f-d5a6-4c04-a02f-5c3db80e7f8a","淹水深度","淹水深度(3132013FLSHJ0003)","淹水深度量測","淹水感測器","淹水深度","cm"
"ad0af4e8-fefc-40ef-b5e7-7a335153dcf5","108Q064布袋鎮菜舖里大眾爺廟","水利署","第五河川分署","3132015FL1080134","菜舖里大眾爺廟","120.215515","23.384321","509f1718-a1ac-4ff1-b7d2-503e984348b4","淹水深度","淹水高度","淹水高度量測(高度5cm以下每1HR回傳、5cm每10MIN回傳)","淹水感測器","淹水深度","cm"
"a5aef3a0-1e1f-4fea-9b5c-523d698892fc","5-南投縣草屯鎮中正路344-37號","水利署","第三河川分署","3132013FLSHJ0005","南投縣草屯鎮中正路344-37號","120.719","23.9789","e9f33383-c7d6-43a5-b6c4-905601eca720","淹水深度","淹水深度(3132013FLSHJ0005)","淹水深度量測","淹水感測器","淹水深度","cm"
"d8144180-cded-40a8-8ec0-3929f482f021","2-南投埔里向善里觀音路34號","水利署","第三河川分署","3132013FLSHJ0002","南投埔里向善里觀音路34號","120.917336","23.986938","ba8e03f3-fa41-41b5-8342-53b30e48c26d","淹水深度","淹水深度(3132013FLSHJ0002)","淹水深度量測","淹水感測器","淹水深度","cm"
"2d0368ec-e84a-46f9-a440-c130170dee86","108Q019東石港口村蚶子寮","水利署","第五河川分署","3132015FL1080017","港口村蚶子寮","120.181366","23.500586","e4474416-8eb4-4b28-90eb-de8e9b4b944e","淹水深度","笨港口港口宮、下楫國小淹水高度","淹水高度量測(高度5cm以下每1HR回傳、5cm每10MIN回傳)","淹水感測器","淹水深度","cm"
"260104d7-a0f3-4f26-8c0c-579b7a5ffc4a","108Q014六腳魚寮村","水利署","第五河川分署","3132015FL1080020","魚寮村","120.2505","23.517817","cf5e6ba6-dc77-4f55-bdc2-922b26134e14","淹水深度","魚寮村淹水高度","淹水高度量測(高度5cm以下每1HR回傳、5cm每10MIN回傳)","淹水感測器","淹水深度","cm"
"504b2fba-4349-45c4-8b4e-f57fdca4ff47","鹿港橋頭排水淹水監控站","水利署","第四河川分署","3132014FLRD00012","彰化縣鹿港橋","120.4402","24.0464","2c422fe1-e41f-4f82-9b16-2a09eb5a5fb7","淹水深度","鹿港橋頭排水淹水監控站","地面淹水感測","淹水感測器","淹水深度","cm"
"af367e34-a91c-477a-968d-9d9ced33dd3d","鹿港顏厝排水淹水監控站","水利署","第四河川分署","3132014FLRD00013","彰化縣鹿港","120.4311","24.0649","2ddbb59e-a81a-4b88-b72f-f5447491b167","淹水深度","鹿港顏厝排水淹水監控站","地面淹水感測","淹水感測器","淹水深度","cm"
"d34f8fa7-0567-4d39-b72c-6883a0c0c4fa","鹿港公會堂淹水感測","水利署","第四河川分署","3132014FLRD00003","彰化縣鹿港鎮洛津里埔頭街鹿港公會堂(鹿港老街)","120.4316","24.0573","d9d3d962-24ea-46ea-9293-44ba9f711f43","淹水深度","鹿港公會堂淹水感測","地面水淹水感測","淹水感測器","淹水深度","cm"
"2de40b95-49c5-45b4-8db4-dbf8dceb1c3a","108P037四湖泊東村普天宮","水利署","第五河川分署","3132015FL1080140","泊東村普天宮","120.15206","23.63023","959380b4-6c77-4981-9626-e97c5703f71a","淹水深度","普天宮淹水高度","淹水高度量測(高度5cm以下每1HR回傳、5cm每10MIN回傳)","淹水感測器","淹水深度","cm"
"934b2d54-339e-4976-ac4d-99a1ad4e5319","108Q034朴子崁後里敦睦宮","水利署","第五河川分署","3132015FL1080121","崁後里敦睦宮","120.23046","23.446444","c8b4f7e0-f46a-4c90-9d07-098f437231ad","淹水深度","敦睦宮淹水高度","淹水高度量測(高度5cm以下每1HR回傳、5cm每10MIN回傳)","淹水感測器","淹水深度","cm"
"d090f33f-34fd-4300-ac34-aadb308c75bf","豐濱鄉港口村-大港口51號 ","水利署","第九河川分署","3132019FL012","港口村大港口51號","121.4976","23.46909","2482ad6d-e88b-4c19-a9ef-fa10dd3bf7f7","淹水深度","豐濱鄉港口村-大港口51號 ","淹水高度量測(高度0時每3HR回傳>10cm每5MIN回傳<10cm每10MIN回傳)","淹水感測器","淹水深度","cm"
"fc450788-a2b1-4c68-83b4-e700e029bc17","108Q012六腳港美村六腳大排水溝","水利署","第五河川分署","3132015FL1080014","港美村六腳大排水溝","120.2969","23.527777","0a1b96f1-24a8-4607-8ee4-bec19f50e00a","淹水深度","港美村1淹水高度","淹水高度量測(高度5cm以下每1HR回傳、5cm每10MIN回傳)","淹水感測器","淹水深度","cm"
"7c307652-8ebb-4a18-9ad0-04215b0881a0","108P055北港水埔里","水利署","第五河川分署","3132015FL1080001","水埔里","120.27927","23.54905","445607e1-da64-42d7-b394-83ea5653404a","淹水深度","雲163縣道淹水高度","淹水高度量測(高度5cm以下每1HR回傳、5cm每10MIN回傳)","淹水感測器","淹水深度","cm"
"47ecbe91-da6e-411b-9601-7eb3c52cb84e","108P032四湖溪底村東光國小","水利署","第五河川分署","3132015FL1080060","溪底村東光國小","120.27266","23.649063","d015b698-4d90-4b04-b898-d8bea09d4a5d","淹水深度","雲116縣道淹水高度","淹水高度量測(高度5cm以下每1HR回傳、5cm每10MIN回傳)","淹水感測器","淹水深度","cm"
"c8f0ec8a-b5e6-448c-b2cb-b2575d789eb6","雲林斗南仁德橋","水利署","第五河川分署","3132015RV1070001","斗南仁德橋下游橋樑上","120.49547","23.66735","b729bc86-69d9-49d8-b3ce-07f673878b9d","傳輸訊號強度","雲林斗南仁德橋 _4G訊號強度","訊號強度量測","淹水感測器","其他","dBm"
"c8f0ec8a-b5e6-448c-b2cb-b2575d789eb6","雲林斗南仁德橋","水利署","第五河川分署","3132015RV1070001","斗南仁德橋下游橋樑上","120.49547","23.66735","fe1751d7-9c40-4949-b69d-8a63e85994a5","傳輸訊號強度","雲林斗南仁德橋 _NB訊號強度","訊號強度量測","淹水感測器","其他","dBm"
"c8f0ec8a-b5e6-448c-b2cb-b2575d789eb6","雲林斗南仁德橋","水利署","第五河川分署","3132015RV1070001","斗南仁德橋下游橋樑上","120.49547","23.66735","e523437e-9471-4b64-aa7f-df57defc055c","水位","雲林斗南仁德橋_絕對高程","河川水位量測","淹水感測器","水文","m"
"0e66b0f8-b7b4-40a0-897c-e59c2cc58fd6","110P003北港農工","水利署","第五河川分署","3132015FL1080085","新街里ACDelco東昌汽車輪胎保養廠","120.304794","23.583727","31ba7585-5a7b-46ec-8258-32e7f8b1c753","淹水深度","雲林北港農工淹水高度","淹水高度量測(高度5cm以下每1HR回傳、5cm每10MIN回傳)","淹水感測器","淹水深度","cm"
"12f8db0c-392d-467f-b7f6-158459474f79","108Q050布袋龍江里卿雲廟","水利署","第五河川分署","3132015FL1080135","龍江里卿雲廟","120.17035","23.385744","301f6783-3afa-4de3-8f41-60f731ac40dc","淹水深度","新厝里淹水高度","淹水高度量測(高度5cm以下每1HR回傳、5cm每10MIN回傳)","淹水感測器","淹水深度","cm"
"1c8f0f5d-7940-4734-b59a-4f0031ef5304","107Q002新港南崙村溪底寮","水利署","第五河川分署","3132015FL1070009","台電-溪底寮40K-1517,BE-44新港鄉公所-路燈075689","120.343544","23.581772","25b05237-3424-4d4f-8ace-2e20e2441f8e","傳輸訊號強度","新港平安壇 _4G訊號強度","訊號強度量測","淹水感測器","其他","dBm"
"1c8f0f5d-7940-4734-b59a-4f0031ef5304","107Q002新港南崙村溪底寮","水利署","第五河川分署","3132015FL1070009","台電-溪底寮40K-1517,BE-44新港鄉公所-路燈075689","120.343544","23.581772","a7eecccc-b72c-4bc0-ba2b-c55b69f980e8","淹水深度","新港南崙村溪底寮_淹水深度","路面淹水深度量測","淹水感測器","淹水深度","cm"
"1c8f0f5d-7940-4734-b59a-4f0031ef5304","107Q002新港南崙村溪底寮","水利署","第五河川分署","3132015FL1070009","台電-溪底寮40K-1517,BE-44新港鄉公所-路燈075689","120.343544","23.581772","65b4bac7-85c5-46ec-b44a-fb0a902ac2bd","傳輸訊號強度","新港平安壇 _NB訊號強度","訊號強度量測","淹水感測器","其他","dBm"
"28668091-4b05-4d5b-9068-2d75f177da6a","107Q001溪口美南村天赦","水利署","第五河川分署","3132015FL1070008","溪口鄉公所-路燈061732","120.373505","23.584955","3eca3646-cc6e-46f1-966f-a9b4fc4a901a","傳輸訊號強度","溪口天赦社區奉安宮_NB訊號強度","訊號強度量測","淹水感測器","其他","dBm"
"28668091-4b05-4d5b-9068-2d75f177da6a","107Q001溪口美南村天赦","水利署","第五河川分署","3132015FL1070008","溪口鄉公所-路燈061732","120.373505","23.584955","e8cd2780-20af-4f88-86df-b5aa908b55f7","淹水深度","溪口美南村天赦_淹水深度","路面淹水深度量測","淹水感測器","淹水深度","cm"
"d47ba0d4-cf73-487a-8ecc-061e2820902f","108Q001溪口溪北村溪口小柴林腳三仙宮","水利署","第五河川分署","3132015FL1080025","溪北村溪口小柴林腳三仙宮","120.380005","23.597458","4fa1783c-23cd-4245-8b7b-b8da0537465a","淹水深度","溪口小柴林腳三仙宮淹水高度","淹水高度量測(高度5cm以下每1HR回傳、5cm每10MIN回傳)","淹水感測器","淹水深度","cm"
"0df0d309-29c9-44df-95a6-ad174148388f","108Q017六腳溪厝村溪墘厝","水利署","第五河川分署","3132015FL1080094","溪厝村溪墘厝","120.26639","23.49593","fb2a051d-6037-49df-8596-18c46d0d1be2","淹水深度","溪厝村1淹水高度","淹水高度量測(高度5cm以下每1HR回傳、5cm每10MIN回傳)","淹水感測器","淹水深度","cm"
"05b6ae2e-79b8-4e23-b00a-375cbc8ed799","溪湖向上路64淹水監控站","水利署","第四河川分署","3132014FLRD00027","溪湖鎮湖東里向上路42之3號","120.4859","23.9682","5dd84c8b-2bef-422b-9e32-24265c7b512a","淹水深度","溪湖向上路64淹水監控站","地面淹水感測","淹水感測器","淹水深度","cm"
"6cf65d76-500c-472d-bc4f-54b707aa8840","美濃區_美濃浸信會","水利署","第七河川分署","3132017FL4021","屏東縣美濃區","120.5477","22.8974","5190bc68-24d0-4a07-9182-1c7047bc3dbf","直流電壓","路面淹水站_浸信會_電池電壓","電池電壓量測","淹水感測器","電力","V"
"c6da4d65-dd23-40dc-8148-5fc54ff12b1a","枋寮鄉_隆安幼兒園","水利署","第七河川分署","3132017FL4011","屏東縣枋寮鄉","120.6044","22.3627","7548a289-ccfd-47c1-a1ed-2c6a9a1593ce","直流電壓","路面淹水站_隆安幼兒園_電池電壓","電池電壓量測","淹水感測器","電力","V"
"93df25d4-47e3-481a-b1b1-b14a16a00e1f","佳冬鄉_焰溫村炯興路","水利署","第七河川分署","3132017FL4014","屏東縣佳冬鄉","120.5231","22.4224","905d475f-48b2-42a4-bfcb-d7f1f15ce877","直流電壓","路面淹水站_焰溫村_電池電壓","電池電壓量測","淹水感測器","電力","V"
"45f623e3-d03e-4cfe-b34d-813736e96962","長治鄉_神農路","水利署","第七河川分署","3132017FL4020","屏東縣長治鄉","120.5366","22.7076","9dab6fa3-7544-49e9-a22c-c364815761ee","直流電壓","路面淹水站_神農路_電池電壓","電池電壓量測","淹水感測器","電力","V"
"d7b70548-528a-4656-9d92-5fc7e5f9bd4a","南州鄉_同安國小","水利署","第七河川分署","3132017FL4018","屏東縣南州鄉","120.5223","22.4723","b62a98cd-d7a7-4e43-a747-abc702b6fe91","直流電壓","路面淹水站_同安國小_電池電壓","電池電壓量測","淹水感測器","電力","V"
"95edb732-075f-45f0-a94e-a9b8c351d4cf","林邊鄉_林邊郵局","水利署","第七河川分署","3132017FL4015","屏東縣林邊鄉","120.5162","22.4335","d7c4b554-6c3f-4405-8fc2-d9927fd4062a","直流電壓","路面淹水站_林邊郵局_電池電壓","電池電壓量測","淹水感測器","電力","V"
"38505796-1525-4c8b-9d5c-27fea47db00f","路面淹水感知器","水利署","第七河川分署","3132017FL9999","湖內路","120","23","71f0faf5-f1eb-44a0-b27f-e279f8f0c681","直流電壓","路面淹水監測站_湖內路_電池電壓","電池電壓量測","淹水感測器","電力","V"
"38505796-1525-4c8b-9d5c-27fea47db00f","路面淹水感知器","水利署","第七河川分署","3132017FL9999","東隆宮","120","23","8f02f071-717a-45e8-a1de-884f14767bdd","直流電壓","路面淹水監測站_東隆宮_電池電壓","電池電壓量測","淹水感測器","電力","V"
"38505796-1525-4c8b-9d5c-27fea47db00f","路面淹水感知器","水利署","第七河川分署","3132017FL9999","恆南路","120","23","86837ab3-3a0e-43c7-a311-5e3b86261ee9","直流電壓","路面淹水監測站_恆南路_電池電壓","電池電壓量測","淹水感測器","電力","V"
"b1588c8d-bfe7-4f26-805c-70d028ca8832","長治鄉_繁華郵局","水利署","第七河川分署","3132017FL4019","屏東縣長治鄉","120.5732","22.7022","a6c94beb-3d04-48f9-b8ac-9d3df400ba30","直流電壓","路面淹水站_繁華村郵局_電池電壓","電池電壓量測","淹水感測器","電力","V"
"38505796-1525-4c8b-9d5c-27fea47db00f","路面淹水感知器","水利署","第七河川分署","3132017FL9999","高雄市美濃區永安路269巷1號","120","23","bd5006d1-799d-4cd7-870d-dc1a4b3b14df","直流電壓","路面淹水監測站_天后宮_電池電壓","電池電壓量測","淹水感測器","電力","V"
"38505796-1525-4c8b-9d5c-27fea47db00f","路面淹水感知器","水利署","第七河川分署","3132017FL9999","旗山區中南街","120","23","17950c4b-6f7a-4b1c-ac9b-0291b4cdec70","直流電壓","路面淹水監測站_中南街_電池電壓","電池電壓量測","淹水感測器","電力","V"
"cbd3eec7-9c3c-46e5-a556-5d7c59e843b0","108Q022六腳古林村古林","水利署","第五河川分署","3132015FL1080084","古林村古林","120.22299","23.484276","c5cea5d0-e29c-412c-979b-a7c7f9bced3d","淹水深度","過溝仔淹水高度","淹水高度量測(高度5cm以下每1HR回傳、5cm每10MIN回傳)","淹水感測器","淹水深度","cm"
"af7ded59-d0f0-43e4-bab9-24a0a5812e1f","108P049口湖謝厝村嘉建造公司","水利署","第五河川分署","3132015FL1080116","謝厝村嘉建造公司","120.19099","23.575975","f80458ca-dab5-4ddc-82c1-20761e2bec1e","淹水深度","嘉建造公司淹水高度","淹水高度量測(高度5cm以下每1HR回傳、5cm每10MIN回傳)","淹水感測器","淹水深度","cm"
"eec50362-c491-4179-b169-e741fcd0bc84","彰化中山路二段874巷淹水監控站","水利署","第四河川分署","3132014FLRD00010","彰化縣龍山里中山路二段920巷110之7號","120.5534","24.0822","342f959c-f3b7-49d0-8646-1f38183a4878","淹水深度","彰化中山路二段874巷淹水監控站","地面淹水感測","淹水感測器","淹水深度","cm"
"b0c595d1-671b-4c55-9079-376998a413d6","彰化台化街淹水監控站","水利署","第四河川分署","3132014FLRD00009","彰化縣彰化市台化街86巷","120.563","24.0847","74720533-f9f4-4bf6-a7e5-ff49c227faa5","淹水深度","彰化台化街淹水監控站","地面淹水感測","淹水感測器","淹水深度","cm"
"da45d291-602b-4638-9e7a-95ad8ebe02b4","旗山區_中南街","水利署","第七河川分署","3132017FL002","旗山區中南街","120.46973","22.8422","e7894ca7-1d57-4b13-94a6-3c9df55ccd21","淹水深度","旗山區_中南街_淹水深度","路面淹水深度量測","淹水感測器","淹水深度","cm"
"8e013e77-8bcb-41cf-bd3b-ffb73d21fc0c","旗山區_石岩寺","水利署","第七河川分署","3132017FL001","旗山區石岩寺","120.46482","22.83931","a3eceaca-6505-4f94-8a77-78a1da99c7d0","淹水深度","旗山區_石岩寺_淹水深度","路面淹水深度量測","淹水感測器","淹水深度","cm"
"10f9ded5-6aba-43f4-8235-38157c96b275","福興下林排水淹水監控站","水利署","第四河川分署","3132014FLRD00016","彰化縣福興鄉頂粘街","120.4045","24.0314","4fd3aeeb-d79c-4b2f-8acd-edda8049fe95","淹水深度","福興下林排水淹水監控站","地面淹水感測","淹水感測器","淹水深度","cm"
"25f88e3a-a5c7-4688-88b2-9261c8441e28","福興秀厝排水淹水監控站","水利署","第四河川分署","3132014FLRD00014","彰化縣鹿港鎮永康路140巷9弄","120.4311","24.0649","93a87c32-d063-424c-b2f0-04dd21bf284e","淹水深度","福興秀厝排水淹水監控站","地面淹水感測","淹水感測器","淹水深度","cm"
"e9aa3574-8013-43f3-bb90-c3b56f96940c","福興二港排水淹水監控站","水利署","第四河川分署","3132014FLRD00015","福興鄉二港村福正路172號","120.4178","24.0458","e0316f65-783c-46e1-b3d3-c8a61def8a2b","淹水深度","福興二港排水淹水監控站","地面淹水感測","淹水感測器","淹水深度","cm"
"bbce0192-4e0a-4f2b-85e2-68d19da875b4","108P008台西台西村台西國小","水利署","第五河川分署","3132015FL1080131","台西村台西國小","120.199905","23.701916","82964de1-4786-40e8-8803-8f80f0982541","淹水深度","臺西國小淹水高度","淹水高度量測(高度5cm以下每1HR回傳、5cm每10MIN回傳)","淹水感測器","淹水深度","cm"
"a76dc9ff-2d18-4ce8-87b8-355e724dc6be","108P004台西永豐村明德寺","水利署","第五河川分署","3132015FL1080100","和豐村明德寺","120.21136","23.724232","f1216be0-0f73-46a9-b638-3424ad741653","淹水深度","臺西鄉農會淹水高度","淹水高度量測(高度5cm以下每1HR回傳、5cm每10MIN回傳)","淹水感測器","淹水深度","cm"
"93d0fe1c-bb94-42e4-88a6-deae21864536","線西番雅溝淹水監控站","水利署","第四河川分署","3132014FLRD00008","彰化縣線西鄉","120.4678","24.1081","caae5de8-1022-4e55-a106-f4f0da521304","淹水深度","線西番雅溝淹水監控站","地面淹水感測","淹水感測器","淹水深度","cm"
"b51559f1-5486-43e1-b5df-b6ef9794b477","108Q028東石型厝村張元帥堂","水利署","第五河川分署","3132015FL1080023","型厝村張元帥堂","120.150925","23.474434","bfff2890-5b49-46c9-a09d-6ccda10d2ea2","淹水深度","鄧繁殖場淹水高度","淹水高度量測(高度5cm以下每1HR回傳、5cm每10MIN回傳)","淹水感測器","淹水深度","cm"
"6878b5e5-8a71-4f7f-ad17-8d4d88721bf5","吉安鄉福興村-舊村五街80號","水利署","第九河川分署","3132019FL002","花蓮縣光復鄉花52鄉道18號","121.42053","23.643986","f2124f1b-326a-4220-8eba-dd7a64ab1764","淹水深度","吉安鄉福興村-舊村五街80號","淹水高度量測(高度0時每3HR回傳>10cm每5MIN回傳<10cm每10MIN回傳)","淹水感測器","淹水深度","cm"
"d7ef1118-6a4c-43bc-99ee-cff373f44f54","108Q024太保舊埤里","水利署","第五河川分署","3132015FL1080054","舊埤里","120.3471","23.491552","1657e432-96d9-4415-a7b7-06c5474f9836","淹水深度","舊埤里淹水高度","淹水高度量測(高度5cm以下每1HR回傳、5cm每10MIN回傳)","淹水感測器","淹水深度","cm"
"18df70c7-3dd3-4cf2-8e9b-1d29676ceae8","108Q020東石鰲鼓村","水利署","第五河川分署","3132015FL1080055","鰲鼓村","120.17379","23.493902","b19012c8-ba97-4f2f-94af-bf9034b91037","淹水深度","鰲鼓村淹水高度","淹水高度量測(高度5cm以下每1HR回傳、5cm每10MIN回傳)","淹水感測器","淹水深度","cm"
"eb3a7a3a-b592-4b16-b352-ff664d091986","108Q021六腳灣南村娘媽堂","水利署","第五河川分署","3132015FL1080099","灣南村娘媽堂","120.308365","23.498186","13085f69-f6f5-440d-9e03-dbea8be47028","淹水深度","灣內1號淹水高度","淹水高度量測(高度5cm以下每1HR回傳、5cm每10MIN回傳)","淹水感測器","淹水深度","cm"
"8cec775d-7f81-4e02-8f22-3e1e132fde39","中興路四段763巷","水利署","第八河川分署","A130618FLCHP000","臺東縣臺東市中興路四段763巷","121.0866","22.773193","fba44c13-b77b-4df0-9e48-d4728333c81e","淹水深度","主要站淹水深度","量測淹水深度","淹水感測器","淹水深度","cm"
"0289c46e-5676-4866-be4d-8e1b4f04dbf0","卓溪鄉立山村-山里一號橋右岸","水利署","第九河川分署","3132019FL013","山里一號橋右岸","121.3131","23.43092","e57821a7-8080-46d3-b4ff-248b3c135239","淹水深度","卓溪鄉立山村-山里一號橋右岸","淹水高度量測(高度0時每3HR回傳>10cm每5MIN回傳<10cm每10MIN回傳)","淹水感測器","淹水深度","cm"
"1381cc45-2b0d-42cc-ba25-872d4434c96f","107P004斗南信義育幼院","水利署","第五河川分署","3132015FL1070004","斗南鎮公所-信育幼院院門口反光鏡稈","120.50339","23.670124","c74c0ae7-50cf-4a0c-9de0-5f9095ce077f","傳輸訊號強度","斗南信義育幼院_NB訊號強度","訊號強度量測","淹水感測器","其他","dBm"
"1381cc45-2b0d-42cc-ba25-872d4434c96f","107P004斗南信義育幼院","水利署","第五河川分署","3132015FL1070004","斗南鎮公所-信育幼院院門口反光鏡稈","120.50339","23.670124","6cf8b403-41e5-4c8a-a40b-0dac0edd18f8","直流電壓","斗南信義育幼院_電池電壓","電池電壓量測","淹水感測器","電力","V"
"1381cc45-2b0d-42cc-ba25-872d4434c96f","107P004斗南信義育幼院","水利署","第五河川分署","3132015FL1070004","斗南鎮公所-信育幼院院門口反光鏡稈","120.50339","23.670124","ce23d416-c419-4034-9906-46960b363228","淹水深度","斗南信義育幼院_淹水深度","路面淹水深度量測","淹水感測器","淹水深度","cm"
"1381cc45-2b0d-42cc-ba25-872d4434c96f","107P004斗南信義育幼院","水利署","第五河川分署","3132015FL1070004","斗南鎮公所-信育幼院院門口反光鏡稈","120.50339","23.670124","87730710-4a46-48da-9763-493d2aa985b9","傳輸訊號強度","斗南信義育幼院_4G訊號強度","訊號強度量測","淹水感測器","其他","dBm"
"159388b0-a979-41b5-a6d1-e45a4cf626b6","田中德安岩淹水監控站","水利署","第四河川分署","3132014FLRD00046","田中鎮東源里山腳路三段23巷3號","120.6036","23.854","857242b3-afad-481b-b8db-c99bc53bee92","淹水深度","田中德安岩淹水監控站","地面淹水感測","淹水感測器","淹水深度","cm"
"a9128da1-c0ae-40de-a545-3d0e109acc2e","109Q002 朴子竹村里藍天社區","水利署","第五河川分署","3132015FL1090002","藍天社區","120.24745","23.443693","5b6c218e-07ee-4f27-b0c8-3df797a3d9ae","淹水深度","朴子竹村里藍天社區淹水高度","淹水高度量測(高度5cm以下每1HR回傳、5cm每10MIN回傳)","淹水感測器","淹水深度","cm"
"6e1c0af6-580e-4255-a4af-3a978cefb314","枋寮鄉_德聖路","水利署","第七河川分署","3132017FL4012","屏東縣枋寮鄉","120.5525","22.3947","68886e97-300d-4ab5-98d3-0f8c3c16b824","淹水深度","枋寮鄉_枋寮德聖路_淹水深度","路面淹水深度量測","淹水感測器","淹水深度","cm"
"4ad7a52c-c011-4775-af3d-51d371d5e63f","107Q010東石掌潭村掌潭","水利署","第五河川分署","3132015FL1070017","東石鄉公所-保安宮正門前路燈桿","120.17317","23.418444","2d196327-eeb0-477f-aa71-5cb9c58a64b8","直流電壓","東石保安宮_電池電壓","電池電壓量測","淹水感測器","電力","V"
"178a7f36-d720-40aa-b5ed-07c04efa77f0","6-M1-南投南埔路排水支線與隘寮溪匯流口","水利署","第三河川分署","3132013FLSHJ0006","南投南埔路排水支線與隘寮溪匯流口","120.717","23.9793","a241adea-b9af-4e66-a3f7-7031685337e4","淹水深度","淹水深度(3132013FLSHJ0006)","淹水深度量測","淹水感測器","淹水深度","cm"
"ead17bf4-c66a-461f-a87e-96d548fc1461","108P023土庫埤腳里霹靂布袋戲","水利署","第五河川分署","3132015FL1080008","埤腳里霹靂布袋戲","120.35048","23.672218","d5306537-7e33-44ce-9f99-3d653f618ec4","淹水深度","雲101縣道淹水高度","淹水高度量測(高度5cm以下每1HR回傳、5cm每10MIN回傳)","淹水感測器","淹水深度","cm"
"1c8f0f5d-7940-4734-b59a-4f0031ef5304","107Q002新港南崙村溪底寮","水利署","第五河川分署","3132015FL1070009","台電-溪底寮40K-1517,BE-44新港鄉公所-路燈075689","120.343544","23.581772","5675edbb-d86f-4198-8b30-75238a1f3cdc","直流電壓","新港平安壇 _電池電壓","電池電壓量測","淹水感測器","電力","V"
"fc808774-794a-4cd9-acea-27578343eaee","108Q011六腳港美村查天宮","水利署","第五河川分署","3132015FL1080129","港美村查天宮","120.29653","23.532175","95de598a-d40a-4111-a027-00d4f57e0f43","淹水深度","港美村2淹水高度","淹水高度量測(高度5cm以下每1HR回傳、5cm每10MIN回傳)","淹水感測器","淹水深度","cm"
"89dea886-7465-42ad-a52d-5b4d3006150c","111Q004新港西庄村嘉75-1縣道","水利署","第五河川分署","3132015FL108Q002","新港西庄村嘉75-1縣道","120.37569","23.567078","2fc9ea30-54bd-4aa2-bfd2-2db35de1b7c9","淹水深度","新港西庄村嘉75-1縣道淹水深度","淹水高度量測(高度5cm以下每1HR回傳、5cm每10MIN回傳)","淹水感測器","淹水深度","cm"
"1d629f8c-bc36-4c24-a322-a73635e3359c","林邊鄉_仁鵬遊湖公司","水利署","第七河川分署","3132017FL4017","屏東縣林邊鄉","120.5001","22.4518","eeed0196-22a0-44ff-82f3-d378dbbd7d5f","直流電壓","路面淹水站_大鵬灣_電池電壓","電池電壓量測","淹水感測器","電力","V"
"8990ce95-2301-470d-9086-c6676705ac63","彰化小天台淹水監控站","水利署","第四河川分署","3132014FLRD00011","彰化市向陽里中央路223巷133號","120.5273","24.0645","06b20051-13fa-490a-b010-54bcb8053b47","淹水深度","彰化小天台淹水監控站","地面淹水感測","淹水感測器","淹水深度","cm"
"66531068-3d24-4714-96e6-41abb21a6e86","108P017斗南東明里台灣中油佳得美雲林站","水利署","第五河川分署","3132015FL1080063","東明里台灣中油佳得美雲林站","120.4992","23.685022","9901e77f-5c7b-47b9-8d52-9fe14094b4af","淹水深度","斗南東明里台灣中油佳得美雲林站淹水高度","淹水高度量測(高度5cm以下每1HR回傳、5cm每10MIN回傳)","淹水感測器","淹水深度","cm"
"72acdd99-03f0-43e0-8d24-bf71eef6d57c","108P040元長內寮村侯氏實業有限公司","水利署","第五河川分署","3132015FL1080113","內寮村侯氏實業有限公司","120.34319","23.610933","a3f686b0-22af-429c-b06c-aed96075bf2d","淹水深度","淹水高度","淹水高度量測(高度5cm以下每1HR回傳、5cm每10MIN回傳)","淹水感測器","淹水深度","cm"
"43bd51f6-fe70-4013-85f8-09456cf437d3","108Q007民雄福權村中油民雄交流道站","水利署","第五河川分署","3132015FL1080069","福權村中油民雄交流道站","120.409325","23.560125","bc1f8b60-2445-4141-b5e3-3fa0b8a0a274","淹水深度","保安宮淹水高度","淹水高度量測(高度5cm以下每1HR回傳、5cm每10MIN回傳)","淹水感測器","淹水深度","cm"
"3dc1b552-bcb8-4722-8790-6d343f09752a","員林中山路2段淹水監控站","水利署","第四河川分署","3132014FLRD00023","員林巿和平里中山路2段369巷2弄15之11號","120.5718","23.969","0429083f-09d2-40b6-a109-f2323e189aa0","淹水深度","員林中山路2段淹水監控站","地面淹水感測","淹水感測器","淹水深度","cm"
"bf4f3db9-e26d-4228-a6aa-e009bd4193f8","108P054口湖台子村蚶仔寮王家祠堂","水利署","第五河川分署","3132015FL1080040","台子村蚶仔寮王家祠堂","120.154945","23.55546","bd4e46d6-b9b3-404a-93fb-1c97b506fccd","淹水深度","台子村淹水高度","淹水高度量測(高度5cm以下每1HR回傳、5cm每10MIN回傳)","淹水感測器","淹水深度","cm"
"a324f79a-e633-4fd3-b36b-6a651251b1f7","111Q003太保埤鄉里","水利署","第五河川分署","3132015FL111Q003","太保埤鄉里","120.38627","23.486553","2e093643-b4e7-445f-bfd5-f84a9b04be8f","淹水深度","太保埤鄉里淹水深度","淹水高度量測(高度5cm以下每1HR回傳、5cm每10MIN回傳)","淹水感測器","淹水深度","cm"
"d83ac636-3d28-43fe-96a9-5c33dde8aebe","4-南投市三和里縣議會前中興路及美芳路口","水利署","第三河川分署","A130613FLSHJ0004","南投市三和里縣議會前中興路及美芳路口","120.691","23.9032","f6cda132-9dbe-4863-bcef-2519216c6fe9","淹水深度","淹水深度(3132013FLSHJ0004)","淹水深度量測","淹水感測器","淹水深度","cm"
"69fdbe51-1761-4da6-81f0-127f3efa2c20","108Q070東石鄉西崙村靈慈宮","水利署","第五河川分署","A130615FL1080095","西崙村慈零宮","120.18431","23.433458","24f1e1fd-d959-425c-944d-611f62dad05f","淹水深度","淹水高度","淹水高度量測(高度5cm以下每1HR回傳、5cm每10MIN回傳)","淹水感測器","淹水深度","cm"
"846cab0a-f056-4100-88a1-54eb8bed2228","108Q073鹿草鄉三角村2","水利署","第五河川分署","A130615FL1080051","三角村辦公處","120.34116","23.399904","0e5c5e95-4602-4933-8ad0-0ddc178f2523","淹水深度","淹水高度","淹水高度量測(高度5cm以下每1HR回傳、5cm每10MIN回傳)","淹水感測器","淹水深度","cm"
"e040cbc5-e893-4a32-b3e1-e5b3232b00e6","107Q004太保舊埤里勞工住宅","水利署","第五河川分署","A130615FL1070011","太保市公所-路燈015082","120.34195","23.500507","15103a8a-17ec-41cb-a19c-19f0e2d20712","淹水深度","太保舊埤里勞工住宅_淹水深度","路面淹水深度量測","淹水感測器","淹水深度","cm"
"2d73cf9f-a081-4484-8df7-f2837e759fdf","108Q075番路鄉江西村玉虛宮","水利署","第五河川分署","A130615FL1080027","江西村玉虛宮","120.50872","23.476635","285344c3-262d-43cd-a72c-63b6e2784627","淹水深度","淹水高度","淹水高度量測(高度5cm以下每1HR回傳、5cm每10MIN回傳)","淹水感測器","淹水深度","cm"
"8c51e910-2829-47c8-844b-6be9ff4e9ac7","108Q039東石東崙村龍崗派出所","水利署","第五河川分署","A130615FL1080038","東崙村龍崗派出所","120.19175","23.432842","1fab6fc7-c247-4da0-a257-c13499ac438b","淹水深度","龍崗國小淹水高度","淹水高度量測(高度5cm以下每1HR回傳、5cm每10MIN回傳)","淹水感測器","淹水深度","cm"
"add68acd-a7a4-4377-aa29-0ed26a603bd6","108Q054義竹義竹村竹禪寺","水利署","第五河川分署","A130615FL1080071","義竹村竹禪寺","120.246796","23.335451","1529b13a-8654-4c19-8410-356e82fcce56","淹水深度","義竹村仁愛路淹水高度","淹水高度量測(高度5cm以下每1HR回傳、5cm每10MIN回傳)","淹水感測器","淹水深度","cm"
"03ad5bef-92a9-47ff-8bca-4db861184545","108Q032中埔和美村永祥汽車保養廠","水利署","第五河川分署","A130615FL1080002","和美村永祥汽車保養廠","120.47164","23.454645","1ee45b18-3707-41ba-b4e2-f0261373d9bf","淹水深度","中油輝達站淹水高度","淹水高度量測(高度5cm以下每1HR回傳、5cm每10MIN回傳)","淹水感測器","淹水深度","cm"
"85b6db4a-fb49-4a5f-89d1-19aa168e8983","108P024斗南東仁里川和食品","水利署","第五河川分署","A130615FL1080110","東仁里川和食品","120.48392","23.674873","07db0fa5-9f8c-4431-ba6e-c41ba534531d","淹水深度","斗南東仁里川和食品淹水高度","淹水高度量測(高度5cm以下每1HR回傳、5cm每10MIN回傳)","淹水感測器","淹水深度","cm"
"edc05aa8-9b5e-4a7a-8ad5-a01599206c95","108D002北門錦湖里錦湖國小","水利署","第五河川分署","A130615FL1080024","錦湖國小","120.16906","23.297598","068a5805-5fe8-4293-9ec6-01a6fec1bb65","淹水深度","錦湖國小淹水高度","淹水高度量測(高度5cm以下每1HR回傳、5cm每10MIN回傳)","淹水感測器","淹水深度","cm"
"fde5ff52-649c-4ff5-b517-9959afddbe96","108D003鹽水汫水里汫水港堤防","水利署","第五河川分署","A130615FL1080068","汫水里汫水港堤防","120.28147","23.34615","71e6892f-14c7-40b8-bca8-03d04c1e59b7","淹水深度","汫水里淹水高度","淹水高度量測(高度5cm以下每1HR回傳、5cm每10MIN回傳)","淹水感測器","淹水深度","cm"
"c0fe3f84-fb4b-4fa4-9ccf-ebf224df3710","108Q047水上靖和村","水利署","第五河川分署","A130615FL1080127","靖和村","120.376755","23.409792","6ace47e7-b5b2-4733-ac20-c2ea25b986e1","淹水深度","靖和村八掌溪橋右岸淹水高度","淹水高度量測(高度5cm以下每1HR回傳、5cm每10MIN回傳)","淹水感測器","淹水深度","cm"
"00834a7f-783e-4932-be98-3876d17a9c7a","108Q051鹿草三角村1","水利署","第五河川分署","A130615FL1080146","三角村辦公處","120.33976","23.399588","6f6df77a-38f6-4cb2-95b0-538df14a667a","淹水深度","三角村淹水高度","淹水高度量測(高度5cm以下每1HR回傳、5cm每10MIN回傳)","淹水感測器","淹水深度","cm"
"0264877d-dd72-4544-9c26-38ad10c7cf0a","108P044口湖青蚶村保安宮","水利署","第五河川分署","A130615FL1080010","青蚶村保安宮","120.16429","23.596766","49bcb1d8-3e8e-48e1-b78f-9694b0e470a9","淹水深度","青蚶保安宮淹水高度","淹水高度量測(高度5cm以下每1HR回傳、5cm每10MIN回傳)","淹水感測器","淹水深度","cm"
"4d55165f-5fa2-4458-9dc0-6adbae36fee0","107Q012義竹北華村北華","水利署","第五河川分署","A130615FL1070019","義竹鄉公所-路燈100986","120.19554","23.34224","dca045f6-f823-42b2-8775-983833bf9ff5","淹水深度","義竹北華村北華_淹水深度","淹水量測","淹水感測器","淹水深度","cm"
"c45b9bf5-39c2-4411-8709-31118b68eb4e","108P042口湖崙東村下崙興安代天府","水利署","第五河川分署","A130615FL1080065","崙東村下崙興安代天府","120.16292","23.614708","77e83a94-1244-4532-b05f-0e17c283c62f","淹水深度","興安代天府淹水高度","淹水高度量測(高度5cm以下每1HR回傳、5cm每10MIN回傳)","淹水感測器","淹水深度","cm"
"7a8720f5-b15e-4f07-90f5-b9d4db44c54d","109P001褒忠有才村西北側","水利署","第五河川分署","A130615FL1080005","有才村西北側","120.28772","23.722212","2c36db2f-47ad-4889-8560-bbf44e7fe3f9","淹水深度","褒忠有才村西北側淹水高度","淹水高度量測(高度5cm以下每1HR回傳、5cm每10MIN回傳)","淹水感測器","淹水深度","cm"
"8add2a74-1916-4edb-b83a-e45d508457dc","108P056口湖梧北村調天府","水利署","第五河川分署","A130615FL1080033","梧北村調天府","120.19033","23.54954","f70ee87d-7205-4f39-b931-5f11d1357af6","淹水深度","宜梧水塔淹水高度","淹水高度量測(高度5cm以下每1HR回傳、5cm每10MIN回傳)","淹水感測器","淹水深度","cm"
"d0595146-b2c7-4aab-87df-0cc0c60f3e3f","108Q059水上忠和村新嘉榮橋","水利署","第五河川分署","A130615FL1080103","忠和村新嘉榮橋","120.4365","23.412525","d49f8022-68f2-4fce-aaa5-d8ef1a615a4d","淹水深度","淹水高度","淹水高度量測(高度5cm以下每1HR回傳、5cm每10MIN回傳)","淹水感測器","淹水深度","cm"
"6b00991a-f2ce-4b00-be59-35f0344b9a9c","108Q058水上下寮村第十公墓","水利署","第五河川分署","A130615FL1080043","下寮村第十公墓","120.42178","23.454939","732218f2-eea0-4137-9e1c-a41da24dfc3f","淹水深度","淹水高度","淹水高度量測(高度5cm以下每1HR回傳、5cm每10MIN回傳)","淹水感測器","淹水深度","cm"
"acbf370d-0b6d-4bbf-9157-d36fe51d5bf8","108Q038中埔和興村台揚軸承公司","水利署","第五河川分署","A130615FL1080012","和興村台揚軸承公司","120.44927","23.437128","ca3a9d52-01a2-499d-88f5-6c77a5b3ad5b","淹水深度","嘉義松有休閒客家庄淹水高度","淹水高度量測(高度5cm以下每1HR回傳、5cm每10MIN回傳)","淹水感測器","淹水深度","cm"
"d7a4266e-6171-432c-8c2b-9404769e2c04","107Q006布袋貴舍里新十全","水利署","第五河川分署","A130615FL1070013","新十全駕訓班內電桿","120.20418","23.451082","ca9c6697-0f7d-423a-8c5f-a1c0c95d5bef","淹水深度","布袋貴舍里新十全_淹水深度","路面淹水深度量測","淹水感測器","淹水深度","cm"
"68a2ec88-007d-4f74-bbaf-935198c38f77","108P018元長後湖村雲109縣道","水利署","第五河川分署","A130615FL1080016","後湖村雲109縣道","120.33316","23.684967","90c434e1-bdfc-485e-8206-5470873cdab4","淹水深度","雲109縣道淹水高度","淹水高度量測(高度5cm以下每1HR回傳、5cm每10MIN回傳)","淹水感測器","淹水深度","cm"
"0968b6c1-5213-49a6-85db-45de32e1aa74","108Q071東石鄉下揖村農會下揖辦事處","水利署","第五河川分署","A130615FL1080093","下揖村農會下揖辦事處","120.20097","23.488201","79dba10d-5e12-4249-aa85-d190031e09f6","淹水深度","淹水高度","淹水高度量測(高度5cm以下每1HR回傳、5cm每10MIN回傳)","淹水感測器","淹水深度","cm"
"3d04773a-0f16-4ff7-bcc0-fd901787e91f","108P050水林水北村通天府","水利署","第五河川分署","A130615FL1080088","水北村通天府","120.24122","23.574484","86811d2b-b9ba-4a2b-ad31-891ae9266384","淹水深度","雲林縣政府水林派出所淹水高度","淹水高度量測(高度5cm以下每1HR回傳、5cm每10MIN回傳)","淹水感測器","淹水深度","cm"
"341ddd0a-23f3-4f26-becf-f61a82e83538","108Q042朴子順安里161縣道","水利署","第五河川分署","A130615FL1080049","順安里161縣道","120.22244","23.429155","6743c3f3-72e9-4f7e-aff9-b42e7c98a356","淹水深度","161縣道淹水高度","淹水高度量測(高度5cm以下每1HR回傳、5cm每10MIN回傳)","淹水感測器","淹水深度","cm"
"f59e83fc-ebd8-44af-a5e3-c3536e71a78c","108Q055義竹新店村小超峰寺","水利署","第五河川分署","A130615FL1080114","新店村小超峰寺","120.19565","23.33749","628634b2-826f-42b2-9565-1be72402dfcf","淹水深度","新店村辦公處淹水高度","淹水高度量測(高度5cm以下每1HR回傳、5cm每10MIN回傳)","淹水感測器","淹水深度","cm"
"e83f9be8-902b-462f-a387-3e1b3ca522a1","108P013褒忠中勝村文昌帝君廟","水利署","第五河川分署","A130615FL1080089","中勝村文昌帝君廟","120.31061","23.693193","39d9fad8-1a20-4d26-b1cc-66dc33e4c7b0","淹水深度","褒忠中勝村文昌帝君廟淹水高度","淹水高度量測(高度5cm以下每1HR回傳、5cm每10MIN回傳)","淹水感測器","淹水深度","cm"
"3b8fb2c5-bfcf-44f6-ba54-9d86a70cfa23","108Q008新港南港村稻草倉庫","水利署","第五河川分署","A130615FL108Q008","新港南港村稻草倉庫","120.31687","23.554083","73240b8a-b81b-49e3-a5c2-20b80ea0931f","淹水深度","新港南港村稻草倉庫淹水深度","淹水高度量測(高度5cm以下每1HR回傳、5cm每10MIN回傳)","淹水感測器","淹水深度","cm"
"c294b37d-657d-43fa-8371-671b52dbe345","109D001白河河東里西勢尾","水利署","第五河川分署","A130615FL1080148","西勢尾","120.41581","23.340967","fe10b1c3-5178-499a-bb4b-5b58aca88f06","淹水深度","貴舍里淹水高度","淹水高度量測(高度5cm以下每1HR回傳、5cm每10MIN回傳)","淹水感測器","淹水深度","cm"
"68966204-f3b4-4df8-919b-027979e0b232","108Q061水上三和村北回國小","水利署","第五河川分署","A130615FL1080075","三和村北回國小","120.40865","23.455303","fd9875ad-f8c8-476f-9644-bd7877a433da","淹水深度","淹水高度","淹水高度量測(高度5cm以下每1HR回傳、5cm每10MIN回傳)","淹水感測器","淹水深度","cm"
"b8b113c1-4304-4216-8102-422a9bd99421","大內區石林里石子瀨","水利署","第六河川分署","A130616FL0005","石林里石子瀨","120.3564","23.12456","9a644850-ee7c-45ba-b276-86e986849554","淹水深度","大內區石林里石子瀨_淹水深度","淹水監測","淹水感測器","淹水深度","cm"
"f84ec066-5034-4153-b3a2-0a3b8a59c787","左鎮區中正里左鎮橋","水利署","第六河川分署","A130616FL0003","CHT","120.40655","23.05798","f382e7ed-1c4a-4456-97b0-ccd4c3a9b975","淹水深度","左鎮區中正里左鎮橋_淹水深度","量測淹水深度","淹水感測器","淹水深度","cm"
"ebe5f46e-e96f-4349-9ac1-255235a393f4","左鎮區光和里平和橋","水利署","第六河川分署","A130616FL0004","CHT","120.37988","23.06714","b9509429-f7b3-4e1b-a35c-fb1998692168","淹水深度","左鎮區光和里平和橋_淹水深度","淹水監測","淹水感測器","淹水深度","cm"
"8ce5fde8-1135-4c5c-a090-3632b8e38e4b","108P019土庫大荖里下溪心","水利署","第五河川分署","3132015FL1080048","大荖里下溪心","120.37748","23.684168","00f8e871-a202-43e2-a36b-ffdbfcc66fd7","淹水深度","下溪心淹水高度","淹水高度量測(高度5cm以下每1HR回傳、5cm每10MIN回傳)","淹水感測器","淹水深度","cm"
"de4d2e88-45c6-4aea-b8d9-9e3b77d747a6","111P002斗六天下第一家","水利署","第五河川分署","3132015FL111P002","640雲林縣斗六市文和路260巷21號","120.522156","23.716654","03bfc408-8a60-47fb-b3f4-2ab72e1ca4e5","淹水深度","斗六市天下一家淹水高度","淹水高度量測(高度0時每1hr回傳>30cm每5min回傳<30cm每10min回傳)","淹水感測器","淹水深度","cm"
"5216f9b7-90b8-44b5-9389-ee5c6e3adbad","溪湖四塊厝排水淹水監控站","水利署","第四河川分署","3132014FLRD00028","溪湖鎮湖東里大溪路一段815巷臨11號","120.48919","23.9674","0406e4e9-12b7-4648-a5cf-01727590392d","淹水深度","溪湖四塊厝排水淹水監控站","地面淹水感測","淹水感測器","淹水深度","cm"
"607d1aa6-fa62-48a0-a987-7ee0613e4b53","東港鎮_東隆宮","水利署","第七河川分署","3132017FL4005","東隆宮","120.44873","22.46473","05eabe79-c52e-4168-9047-98d0d2fc5c87","淹水深度","東港鎮_東隆宮_淹水深度","路面淹水深度量測","淹水感測器","淹水深度","cm"
"b2773745-9077-4bcb-b15d-9dcb8a2fed19","107Q007朴子竹村里鴨母寮","水利署","第五河川分署","3132015FL1070014","朴子市公所-路燈022755","120.24009","23.43392","0992e418-ccc0-4eda-bfb1-80ad1bc0d00b","直流電壓","朴子竹安橋北側_電池電壓","電池電壓量測","淹水感測器","電力","V"
"8078bdb1-fbd8-4e32-9c4c-f9097f9f7d30","108Q003溪口林腳村田心仔寶太殿","水利署","第五河川分署","3132015FL1080111","林腳村田心仔寶太殿","120.369514","23.596125","099bd2c9-07c3-418c-a864-6b87fe542b86","淹水深度","田心仔寶太店淹水高度","淹水高度量測(高度5cm以下每1HR回傳、5cm每10MIN回傳)","淹水感測器","淹水深度","cm"
"97114626-f315-47a3-a15e-8ad036915642","7-M1-南投青宅溝排水支線與隘寮溪匯流口","水利署","第三河川分署","3132013FLSHJ0007","南投青宅溝排水支線與隘寮溪匯流口","120.718","23.9784","0b3c92be-2c9e-42cf-ad81-7817c362b2e9","淹水深度","淹水深度(3132013FLSHJ0007)","淹水深度量測","淹水感測器","淹水深度","cm"
"f3a35891-d5ad-4112-9d79-bf83e9c66b23","108P034四湖廣溝村和天宮","水利署","第五河川分署","3132015FL1080076","廣溝村和天宮","120.154015","23.63868","0ca55f34-0087-4921-99bf-c023782b7ed1","淹水深度","和天宮淹水高度","淹水高度量測(高度5cm以下每1HR回傳、5cm每10MIN回傳)","淹水感測器","淹水深度","cm"
"e22f527e-7de4-437b-bada-75fe1b3fcca3","108Q031朴子大鄉里萬萬發公司","水利署","第五河川分署","3132015FL1080026","大鄉里萬萬發公司","120.25002","23.45391","0c8309ff-d9bd-4738-87fa-0ffc05ce80c6","淹水深度","大鄉里1淹水高度","淹水高度量測(高度5cm以下每1HR回傳、5cm每10MIN回傳)","淹水感測器","淹水深度","cm"
"6e1c0af6-580e-4255-a4af-3a978cefb314","枋寮鄉_德聖路","水利署","第七河川分署","3132017FL4012","屏東縣枋寮鄉","120.5525","22.3947","0db80257-5ef9-49a0-a385-8b7871a596e0","直流電壓","路面淹水站_枋寮德聖路_電池電壓","電池電壓量測","淹水感測器","電力","V"
"8df6260d-8775-43fb-a0c1-f48716bc80d2","107P001土庫西平里山子腳","水利署","第五河川分署","3132015FL1070001","中華電信-西平之16右","120.34965","23.712486","12313da6-dba1-4e17-9e72-2bc0479571f0","淹水深度","土庫西平里山子腳_淹水深度","路面淹水深度量測","淹水感測器","淹水深度","cm"
"302bb3ad-859c-408a-bc9f-93903f39eb2f","玉里鎮大禹里-105號","水利署","第九河川分署","3132019FL005","花蓮縣玉里鎮大禹里105號","121.32606","23.379389","1df13bac-6e64-495b-bc4b-f6b83a393000","淹水深度","玉里鎮大禹里-105號","淹水高度量測(高度0時每3HR回傳>10cm每5MIN回傳<10cm每10MIN回傳)","淹水感測器","淹水深度","cm"
"0c58b9de-ccd7-4468-af01-3842d408c18c","瑞穗鄉瑞穗村-國光北路68號","水利署","第九河川分署","3132019FL001","花蓮縣光復鄉大華街107巷50-3號附近","121.41461","23.66549","24299321-83a0-4734-9e01-65b769721d6e","淹水深度","瑞穗鄉瑞穗村-國光北路68號","淹水高度量測(高度0時每3HR回傳>10cm每5MIN回傳<10cm每10MIN回傳)","淹水感測器","淹水深度","cm"
"a73fa3b2-001d-4739-98d1-bbe08e48c401","108I005東區興村里小天使幼兒園","水利署","第五河川分署","A130615FL1080123","興村里小天使幼兒園","120.45403","23.451496","2c07ff8d-5705-415c-b563-4d2a68b87cb0","淹水深度","樂陶捏塑/傳藝彩繪淹水高度","淹水高度量測(高度5cm以下每1HR回傳、5cm每10MIN回傳)","淹水感測器","淹水深度","cm"
"74249b35-891e-479f-ad77-34c6e7434789","107Q009東石西崙里栗仔崙","水利署","第五河川分署","3132015FL1070016","嘉義縣東石鄉157縣道317號路口電桿","120.18707","23.425978","36200050-99b3-4307-a6cf-07c1af9c1391","淹水深度","東石西崙里栗仔崙_淹水深度","路面淹水深度量測","淹水感測器","淹水深度","cm"
"be815803-90fb-48b5-9558-4355c5b3f63d","107P006口湖蚵寮村箔子寮","水利署","第五河川分署","3132015FL1070006","口湖鄉公所-路燈072116","120.17178","23.578457","871de3ce-6dec-444b-9cf3-8b173733ce62","淹水深度","口湖蚵寮村箔子寮_淹水深度","路面淹水深度量測","淹水感測器","淹水深度","cm"
"51b7bced-d793-4f33-8054-dcdd1689feb7","108Q060水上忠和村仁人橋","水利署","第五河川分署","A130615FL1080064","忠和村仁人橋","120.429756","23.406641","e8cd0272-b340-49cf-98f2-9ac2f0d13d0d","淹水深度","淹水高度","淹水高度量測(高度5cm以下每1HR回傳、5cm每10MIN回傳)","淹水感測器","淹水深度","cm"
"cf04eec1-2642-4aaf-805e-cd1c6e996ee5","108Q033鹿草豐稠村鹿草焚化爐","水利署","第五河川分署","3132015FL1080083","豐稠村鹿草焚化爐","120.27766","23.448677","627fd035-3d68-4076-9a86-eea27ffbd803","淹水深度","豐稠村鹿草焚化爐淹水高度","淹水高度量測(高度5cm以下每1HR回傳、5cm每10MIN回傳)","淹水感測器","淹水深度","cm"
"38505796-1525-4c8b-9d5c-27fea47db00f","路面淹水感知器","水利署","第七河川分署","3132017FL9999","枋寮高中","120","23","5a45336b-842c-4a7a-bedf-734f86dc2e4f","直流電壓","路面淹水監測站_枋寮高中_電池電壓","電池電壓量測","淹水感測器","電力","V"
"38505796-1525-4c8b-9d5c-27fea47db00f","路面淹水感知器","水利署","第七河川分署","3132017FL9999","旗山區石岩寺","120","23","83f8e519-bab3-4c47-a701-cac7f1f5c2ee","直流電壓","路面淹水監測站_石岩寺_電池電壓","電池電壓量測","淹水感測器","電力","V"
"17e2a7d8-e150-4fba-9cc8-509aa80b643a","新城鄉嘉里村-嘉里路157號","水利署","第九河川分署","3132019FL015","嘉里路157號","121.6089","24.02076","aab01b83-af9c-4138-b584-b22c43b29afe","淹水深度","新城鄉嘉里村-嘉里路157號","淹水高度量測(高度0時每3HR回傳>10cm每5MIN回傳<10cm每10MIN回傳)","淹水感測器","淹水深度","cm"
"855ab0e5-2de8-410a-9e47-3559ac31be38","108Q036太保梅埔里谷平碾米工廠","水利署","第五河川分署","3132015FL1080073","梅埔里谷平碾米工廠","120.341225","23.439648","929fe41f-7b87-445a-8a76-e50850a0341a","淹水深度","嘉39縣道淹水高度","淹水高度量測(高度5cm以下每1HR回傳、5cm每10MIN回傳)","淹水感測器","淹水深度","cm"
"0a429e45-6f29-482d-adfb-5894cd37dc29","美濃區_中正一路","水利署","第七河川分署","3132017FL4002","","120.54183","22.90036","31f0a6d2-ca22-4c35-903e-79f4908e723f","直流電壓","路面淹水監測站_中正一路_電池電壓","電池電壓量測","淹水感測器","電力","V"
"38505796-1525-4c8b-9d5c-27fea47db00f","路面淹水感知器","水利署","第七河川分署","3132017FL9999","義民路","120","23","46bf592a-7ecc-4910-8373-66cb31a17106","直流電壓","路面淹水監測站_義民路_電池電壓","電池電壓量測","淹水感測器","電力","V"
"38505796-1525-4c8b-9d5c-27fea47db00f","路面淹水感知器","水利署","第七河川分署","3132017FL9999","東港派出所","120","23","7a7922df-868b-44f1-838b-37086aac6645","直流電壓","路面淹水監測站_東港派出所_電池電壓","電池電壓量測","淹水感測器","電力","V"
"5466bb3c-49d5-4341-a427-c2e33dc0941b","108Q005溪口柳溝村南靖厝","水利署","第五河川分署","3132015FL1080072","柳溝村南靖厝","120.4152","23.575556","407725d3-10cc-4a4c-9db9-1cab56b505e7","淹水深度","嘉88縣道淹水高度","淹水高度量測(高度5cm以下每1HR回傳、5cm每10MIN回傳)","淹水感測器","淹水深度","cm"
"d407b21b-9267-4a5a-98ab-1d6e1ac9ab31","108Q044布袋樹林里樹林頭","水利署","第五河川分署","3132015FL1080119","樹林里樹林頭","120.2174","23.41599","6ed542d2-1cde-4b01-abb4-53c6c15da789","淹水深度","樹林里淹水高度","淹水高度量測(高度5cm以下每1HR回傳、5cm每10MIN回傳)","淹水感測器","淹水深度","cm"
"36e11415-c864-4759-9687-c5df21455791","108P009褒忠中民村私立三和老人照顧中心","水利署","第五河川分署","3132015FL1080109","中民村私立三和老人照顧中心","120.3189","23.700293","83350590-c1da-4f91-ad75-e7d9f2ecc266","淹水深度","雲林縣私立三和老人照顧中心淹水高度","淹水高度量測(高度5cm以下每1HR回傳、5cm每10MIN回傳)","淹水感測器","淹水深度","cm"
"526be3d2-69ac-4678-a390-ac0ed105a470","108P021東勢月眉村聖母宮","水利署","第五河川分署","3132015FL1080018","月眉村聖母宮","120.29961","23.679354","35af373e-2b99-4360-b8f5-cabe4f9a44df","淹水深度","聖母宮淹水高度","淹水高度量測(高度5cm以下每1HR回傳、5cm每10MIN回傳)","淹水感測器","淹水深度","cm"
"6b82bf40-467b-4bdb-a5d3-2b228c161fe3","溪洲內三排水淹水監控站","水利署","第四河川分署","3132014FLRD00043","溪州鄉榮光村政民路(內三排水)","120.5764","23.8206","d5f5b703-e083-4315-bc40-909383e3b6dd","淹水深度","溪洲內三排水淹水監控站","地面淹水感測","淹水感測器","淹水深度","cm"
"6895e218-f0e1-4f3c-9c35-42471da9120b","溪州舊濁水淹水監控站","水利署","第四河川分署","3132014FLRD00042","溪州舊濁水","120.5247","23.8572","3f6f6457-c533-4570-8056-cff59cfa8497","淹水深度","溪州舊濁水淹水監控站","地面淹水感測","淹水感測器","淹水深度","cm"
"28668091-4b05-4d5b-9068-2d75f177da6a","107Q001溪口美南村天赦","水利署","第五河川分署","3132015FL1070008","溪口鄉公所-路燈061732","120.373505","23.584955","5a2ca276-b38a-43fd-8ba6-789b897ab5b8","直流電壓","溪口天赦社區奉安宮_電池電壓","電池電壓量測","淹水感測器","電力","V"
"3aa951c9-d277-4d76-9320-82405a77516c","108Q018太保東勢里東和宮","水利署","第五河川分署","3132015FL1080092","東勢里東和宮","120.31037","23.46696","d129a55d-e6ec-4e8c-84b3-6dbaaf236c52","淹水深度","溪厝村2淹水高度","淹水高度量測(高度5cm以下每1HR回傳、5cm每10MIN回傳)","淹水感測器","淹水深度","cm"
"05f3f818-384c-40ca-97d8-adf6fd584a13","108P060口湖後厝村農牧區","水利署","第五河川分署","3132015FL1080143","後厝村農牧區","120.19908","23.535942","4ad1817e-c2ac-4739-aa39-bc28100dc1c8","淹水深度","龍霖汽車工作室淹水高度","淹水高度量測(高度5cm以下每1HR回傳、5cm每10MIN回傳)","淹水感測器","淹水深度","cm"
"1065fe46-d0b5-41f1-ab5c-856332d180ad","108P046口湖謝厝村","水利署","第五河川分署","3132015FL1080087","謝厝村","120.19969","23.584904","a88b86d9-1d63-4a81-b379-3d117023947d","淹水深度","謝厝順天宮淹水高度","淹水高度量測(高度5cm以下每1HR回傳、5cm每10MIN回傳)","淹水感測器","淹水深度","cm"
"3cf936b1-a2b4-40db-b025-8a8c268f3585","8-南投南龍排水與樟平溪匯流","水利署","第三河川分署","3132013FLSHJ0008","南投南龍排水與樟平溪匯流","120.698","23.9218","09b3dd09-2661-4aff-9ef3-2ff3f2fe38dd","淹水深度","淹水深度(3132013FLSHJ0008)","淹水深度量測","淹水感測器","淹水深度","cm"
"1e73ef68-0044-48ea-90dc-8e9c695656f0","108Q016新港中洋村萬仁公廟","水利署","第五河川分署","3132015FL1080144","中洋村萬仁公廟","120.37461","23.510603","816d610d-7c55-45ae-9fa2-1a6193ef0356","淹水深度","萬仁公廟旁淹水高度","淹水高度量測(高度5cm以下每1HR回傳、5cm每10MIN回傳)","淹水感測器","淹水深度","cm"
"21f837ed-d2cd-45b6-9aaa-287be4ff4882","109P002 褒忠有才村在地滯洪","水利署","第五河川分署","3132015FL1090003","有才村在地滯洪","120.28675","23.72107","cd08d14f-9ff3-4254-8c90-81d8128ba72a","淹水深度","褒忠有才村在地滯洪淹水高度","淹水高度量測(高度5cm以下每1HR回傳、5cm每10MIN回傳)","淹水感測器","淹水深度","cm"
"fbe81667-b442-4d91-b020-67ecf465d4b1","108Q009新港大潭村","水利署","第五河川分署","3132015FL1080050","大潭村","120.36847","23.554937","e4b6302f-f728-406d-a412-a550141f6bc4","淹水深度","福德宮淹水高度","淹水高度量測(高度5cm以下每1HR回傳、5cm每10MIN回傳)","淹水感測器","淹水深度","cm"
"2f650199-8de8-4bb6-8c39-8efa270e0f1b","108Q004溪口妙崙村福德宮","水利署","第五河川分署","3132015FL1080030","妙崙村福德宮","120.39961","23.587599","78781b4d-95ff-4d11-bd59-e080a6df9f9b","淹水深度","妙崙村三仙宮委員會淹水高度","淹水高度量測(高度5cm以下每1HR回傳、5cm每10MIN回傳)","淹水感測器","淹水深度","cm"
"59a9f25b-7c8d-4267-8a93-384ded66927c","108Q015六腳三義村三姓寮代天府","水利署","第五河川分署","3132015FL1080142","三義村三姓寮代天府","120.28513","23.521006","6ebfd48c-275c-4f49-82ef-f1ccf7fd7096","淹水深度","三姓寮代天府淹水高度","淹水高度量測(高度5cm以下每1HR回傳、5cm每10MIN回傳)","淹水感測器","淹水深度","cm"
"ff61ee79-aae7-4f40-b9f6-687d076637d6","108P059水林蕃薯村東公廟","水利署","第五河川分署","3132015FL1080057","蕃薯村東公廟","120.22636","23.543234","21a4351f-55a2-4ac4-a914-fa0939c691e1","淹水深度","水林鄉番薯厝順天宮淹水高度","淹水高度量測(高度5cm以下每1HR回傳、5cm每10MIN回傳)","淹水感測器","淹水深度","cm"
"7709e9f3-d69e-4906-a12d-31d897de59fe","芳苑鄉新寶排水淹水監控站","水利署","第四河川分署","3132014FLRD00049","芳苑鄉新寶排水","120.350815","23.979065","2e4680f0-d072-43bc-8599-6df7d2fc76d1","淹水深度","芳苑鄉新寶排水淹水監控站","地面淹水感測","淹水感測器","淹水深度","cm"
"8975cb1d-3b8a-4868-96d2-4ce3da4c7250","108Q048朴子南竹里南勢竹天主堂","水利署","第五河川分署","3132015FL1080080","南竹里南勢竹天主堂","120.23738","23.415445","007d9834-ad93-4aa4-b330-0a5aeec8cd7d","淹水深度","貴舍大排右岸淹水高度","淹水高度量測(高度5cm以下每1HR回傳、5cm每10MIN回傳)","淹水感測器","淹水深度","cm"
"0728ae5a-0da2-4138-9ba1-92f9788d0210","108Q029太保東勢里東安宮停車場","水利署","第五河川分署","3132015FL1080126","東勢里東安宮停車場","120.30285","23.464588","9d88e887-b62b-47f4-9061-c0224f748f92","淹水深度","嘉義縣文化集會所淹水高度","淹水高度量測(高度5cm以下每1HR回傳、5cm每10MIN回傳)","淹水感測器","淹水深度","cm"
"e41ad5de-70e4-4857-87d3-873884a8fb77","108Q025太保新埤里新埤富林漢堡","水利署","第五河川分署","3132015FL1080102","新埤里新埤富林漢堡","120.33336","23.488043","0ecdca66-9009-4123-b365-84ebfeceb6f3","淹水深度","嘉64新埤大排旁淹水高度","淹水高度量測(高度5cm以下每1HR回傳、5cm每10MIN回傳)","淹水感測器","淹水深度","cm"
"ba8e8cf9-76d5-41b4-be90-5b6365c0a4c3","108I004西區紅瓦里重慶六街附近","水利署","第五河川分署","3132015FL1080098","紅瓦里重慶六街附近","120.4303","23.456697","252cbf16-8144-4966-890a-e71c4e4f910f","淹水深度","重慶一街與六街交會處淹水高度","淹水高度量測(高度5cm以下每1HR回傳、5cm每10MIN回傳)","淹水感測器","淹水深度","cm"
